Title,Description,Keywords,Address 1,Address 2,Suburb,Postcode,Latitude,Longitude,Phone,Phone 2,Email,Website,URL,
AAA All Licences,,,Lot 5 Nerang-Broadbeach Road,,Carrara,4211,-28.0074151,153.364265,(07) 5530 3619,0419 591 370,[info@qridemotorcycling.com.au](mailto:info@qridemotorcycling.com.au),[AAA All Licences](www.qridemotorcycling.com.au),AAA All Licences-Lot 5 Nerang-Broadbeach Road,
Aegis Training Services,,,Barmaryee Road,,Yeppoon,4207,-23.1306058,150.6982096,1300 137 277,,[info@learner.com.au](mailto:info@learner.com.au),[Aegis Training Services website](http://www.learner.com.au),Aegis Training Services-104 River Hills Road,[Aegis Training Services website][Aegis Training Services website](http://www.learner.com.au)
Aegis Training Services,,,Waterline Way,,Yeppoon,4703,-23.1634101,150.7854043,1300 137 277,,[info@learner.com.au](mailto:info@learner.com.au),[Aegis Training Services website](http://www.learner.com.au),Aegis Training Services-Waterline Way,[Aegis Training Services website][Aegis Training Services website](http://www.learner.com.au)
Aegis Training Services,,,186 Wises Road,,North Buderim,4556,-26.670414,153.07596,1300 137 277,,[info@learner.com.au](mailto:info@learner.com.au),[Aegis Training Services website](http://www.learner.com.au),Aegis Training Services-186 Wises Road,[Aegis Training Services website][Aegis Training Services website](http://www.learner.com.au)
Aegis Training Services,,,114 Distillery Road,,Beenleigh,4207,-27.7225811,153.2169351,1300 137 277,,[info@learner.com.au](mailto:info@learner.com.au),[Aegis Training Services website](http://www.learner.com.au),Aegis Training Services-114 Distillery Road ,[Aegis Training Services website][Aegis Training Services website](http://www.learner.com.au)
AMT Australian Motorcycle Training,,,29 Riverview Road,,Riverview ,4303,-27.5925489,152.8444103,0430 465 956,,[blake.alexander.amt@gmail.com](mailto:blake.alexander.amt@gmail.com),[AMT Australian Motorcycle Training website](http://www.australianmotorcycletraining.com.au/),AMT Australian Motorcycle Training-29 Riverview Road,[AMT Australian Motorcycle Training website][AMT Australian Motorcycle Training website](http://www.australianmotorcycletraining.com.au/)
Australian Motorcycle Academy,,,Cnr Alabaster Drive and Nerang-Broadbeach Road,,Carrara,4211,-28.0089708,153.366702,(07) 5596 4938,0427 732 223,[info@ama-qride.com.au](mailto:info@ama-qride.com.au),[Australian Motorcycle Academy website](http://www.ama-qride.com.au),Australian Motorcycle Academy-Cnr Alabaster Drive and Nerang-Broadbeach Road,[Australian Motorcycle Academy website][Australian Motorcycle Academy website](http://www.ama-qride.com.au)
Australian Motorcycle Academy,,,Cnr Jondique Avenue and Gooding Drive,,Carrara,4211,-28.0464869,153.3664749,(07) 5596 4938,0427 732 223,[info@ama-qride.com.au](mailto:info@ama-qride.com.au),[Australian Motorcycle Academy website](http://www.ama-qride.com.au),Australian Motorcycle Academy-Cnr Jondique Avenue and Gooding Drive,[Australian Motorcycle Academy website][Australian Motorcycle Academy website](http://www.ama-qride.com.au)
Bike Smart Motorcycle Training,,,288 Gooding Drive,,Carrara,4218,-28.0343649,153.3777721,0408 691 585,,[steve@scelectrical.com.au](mailto:steve@scelectrical.com.au),[Bike Smart Motorcycle Training website](http://www.bikesmarttraining.com.au),Bike Smart Motorcycle Training-Mermaid Waters,
Bike Smart Motorcycle Training,,,68 Gemvale Road,,Reedy Creek,4227,-28.0946776,153.3912258,0408 691 585,,[steve@scelectrical.com.au](mailto:steve@scelectrical.com.au),[Bike Smart Motorcycle Training website](http://www.bikesmarttraining.com.au),Bike Smart Motorcycle Training-Reedy Creek,
Bikecraft Motorcycle Rider Training,,,Cnr Severin Street and Mulgrave Road,,Cairns,4870,-16.924933,145.7644133,0403 370 927,,[bikecraftmrt@gmail.com](mailto:bikecraftmrt@gmail.com),,Bikecraft Motorcycle Rider Training-Cnr Severin Street and Mulgrave Road,
Bundaberg Motorcycle Training,,,7 Production Street,,Bundaberg,4670,-24.889955,152.328301,(07) 4155 3613,0427 776 227,[bundabergmotorcycletraining@hotmail.com](mailto:bundabergmotorcycletraining@hotmail.com),[Bundaberg Motorcycle Training website](http://www.bundabergmotorcycletraining.com.au),Bundaberg Motorcycle Training-7 Production Street,[Bundaberg Motorcycle Training website][Bundaberg Motorcycle Training website](http://www.bundabergmotorcycletraining.com.au)
Bundaberg Motorcycle Training,,,9 Fitzgerald Street,,Bundaberg,4670,-24.895447,152.340771,(07) 4155 3613,0427 776 227,[bundabergmotorcycletraining@hotmail.com](mailto:bundabergmotorcycletraining@hotmail.com),[Bundaberg Motorcycle Training website](http://www.bundabergmotorcycletraining.com.au),Bundaberg Motorcycle Training-9 Fitzgerald Street,[Bundaberg Motorcycle Training website][Bundaberg Motorcycle Training website](http://www.bundabergmotorcycletraining.com.au)
Bundaberg Motorcycle Training,,,South Trees Road,,Gladstone,4680,-23.9045223,151.2872321,(07) 4155 3613,0427 776 227,[bundabergmotorcycletraining@hotmail.com](mailto:bundabergmotorcycletraining@hotmail.com),[Bundaberg Motorcycle Training website](http://www.bundabergmotorcycletraining.com.au),Bundaberg Motorcycle Training-South Trees Road,[Bundaberg Motorcycle Training website][Bundaberg Motorcycle Training website](http://www.bundabergmotorcycletraining.com.au)
Bundaberg Motorcycle Training,,,University Drive,,Bundaberg,4670,-24.8975185,152.3101694,(07) 4155 3613,0427 776 227,[bundabergmotorcycletraining@hotmail.com](mailto:bundabergmotorcycletraining@hotmail.com),[Bundaberg Motorcycle Training website](http://www.bundabergmotorcycletraining.com.au),Bundaberg Motorcycle Training-University Drive,[Bundaberg Motorcycle Training website][Bundaberg Motorcycle Training website](http://www.bundabergmotorcycletraining.com.au)
Bundy Biker Basics,,,Quay Street,,Bundaberg,4670,-24.864688,152.349402,0428 698 732,,[garryally@internode.on.net](mailto:garryally@internode.on.net),,Bundy Biker Basics-Quay Street,[Bundy Biker Basics website][Bundy Biker Basics website](http://www.bundybikerbasics.com.au)
Bundy Biker Basics,,,14 Murdochs Linking Road,,Moore Park Beach,4670,-24.710139,152.254752,0428 698 732,,[garryally@internode.on.net](mailto:garryally@internode.on.net),,Bundy Biker Basics–14 Murdochs Linking Road,[Bundy Biker Basics website][Bundy Biker Basics website](http://www.bundybikerbasics.com.au)
Bundy Biker Basics,,,195 Elizabeth Avenue,,Clontarf,4019,-27.247257,153.080405,0428 698 732,,[garryally@internode.on.net](mailto:garryally@internode.on.net),,Bundy Biker Basics-Quay Street,[Bundy Biker Basics website][Bundy Biker Basics website](http://www.bundybikerbasics.com.au)
Bundy Biker Basics,,,20-36 Regency Street,,Kippa Ring,4021,-27.2203311,153.0736642,0428 698 732,,[garryally@internode.on.net](mailto:garryally@internode.on.net),,Bundy Biker Basics-Quay Street,[Bundy Biker Basics website][Bundy Biker Basics website](http://www.bundybikerbasics.com.au)
CQ Driver Training,,,21 Fairy Bower Lane,,Fairy Bower,4700,-23.4144619,150.4780621,0400 625 100,,[cqdrivertraining@iinet.net.au](mailto:cqdrivertraining@iinet.net.au),[CQ Driver Training](www.cqdrivertraining.com),CQ Driver Training-21 Fairy Bower Lane,[CQ Driver Training website][CQ Driver Training website](www.cqdrivertraining.com)
Central Queensland Driving Academy,,,Lot 2 Gregory Highway,,Emerald,4720,-23.553295,148.170318,(07) 4987 5311,0412 753 633,[rdann@bigpond.net.au](mailto:rdann@bigpond.net.au),,Central Queensland Driving Academy-Lot 2 Gregory Highway,
Cycle Right,,,101 Rickertt Road,,Ransome,4154,-27.486751,153.175396,(07) 3245 1101,0409 386 455,[cycleright@bigpond.com](mailto:cycleright@bigpond.com),[Cycle Right website](http://www.cycleright.com.au),Cycle Right-101 Rickertt Road,[Cycle Right website][Cycle Right website](http://www.cycleright.com.au)
Gold Coast Motorcycle Training,,,611 Tallebudgera Creek Road,,Tallebudgera Valley,4228,-28.151952,153.401457,0418 749 911,,[charles@gcmotorcycletraining.com.au](mailto:charles@gcmotorcycletraining.com.au),[Gold Coast Motorcycle Training website](http://www.gcmotorcycletraining.com.au/),Gold Coast Motorcycle Training-611 Tallebudgera Creek Road,[Gold Coast Motorcycle Training website](http://www.gcmotorcycletraining.com.au/)
HART Honda Australia Rider Training,,,3303-3305 Logan Road,,Slacks Creek,4127,-27.614006,153.118872,(07) 3468 4230,,[hart@honda.com.au](mailto:hart@honda.com.au),[HART Honda Australia Rider Training website](http://hart.honda.com.au/queensland),HART Honda Australia Rider Training-3303-3305 Logan Road,[HART Honda Australia Rider Training website][HART Honda Australia Rider Training website](http://hart.honda.com.au/queensland)
HART Honda Australia Rider Training,,,20 Wildley Street Raceview,,Ipswich,4305,-27.630738,152.784398,(07) 3468 4230,,[hart@honda.com.au](mailto:hart@honda.com.au),[HART Honda Australia Rider Training website](http://hart.honda.com.au/queensland),HART Honda Australia Rider Training-20 Wildley Street,[HART Honda Australia Rider Training website][HART Honda Australia Rider Training website](http://hart.honda.com.au/queensland)
HART Honda Australia Rider Training,,,219a James Street,,Toowoomba,4350,-27.5659665,151.9462802,(07) 3648 4230,,[hart@honda.com.au](mailto:hart@honda.com.au),[HART Honda Australia Rider Training website](http://hart.honda.com.au/queensland),HART Honda Australia Rider Training-219a James Street,[HART Honda Australia Rider Training website][HART Honda Australia Rider Training website](http://hart.honda.com.au/queensland)
Ian Watson's Driver Training Centre,,,1 Drummond Drive,,Gympie,4570,-26.2269315,152.697532,1300 786 088, 0468 990 066,[info@ianwatsons.com](mailto:info@ianwatsons.com),[Ian Watson's Driver Training Centre website](http://www.ianwatsons.com),Ian Watson's Driver Training Centre-1 Drummond Drive,[Ian Watson's Driver Training Centre website][Ian Watson's Driver Training Centre website](http://www.ianwatsonsdrivingschool.com)
Ian Watson's Driver Training Centre,,,10 Runge Road,,Gympie,4570,-26.227947,152.699532,1300 786 088, 0468 990 066,[info@ianwatsons.com](mailto:info@ianwatsons.com),[Ian Watson's Driver Training Centre website](http://www.ianwatsons.com),Ian Watson's Driver Training Centre-10 Runge Road,[Ian Watson's Driver Training Centre website][Ian Watson's Driver Training Centre website](http://www.ianwatsonsdrivingschool.com)
Ian Watson's Driver Training Centre,,,34 Hickey Road,,Caboolture,4510,-27.086332,152.993139,1300 786 088, 0468 990 066,[info@ianwatsons.com](mailto:info@ianwatsons.com),[Ian Watson's Driver Training Centre website](http://www.ianwatsons.com),Ian Watson's Driver Training Centre-34 Hickey Road,[Ian Watson's Driver Training Centre website][Ian Watson's Driver Training Centre website](http://www.ianwatsonsdrivingschool.com)
Ian Watson's Driver Training Centre,,,53 Telegraph Road,,Bald Hills,4036,-27.330327,153.01269,1300 786 088, 0468 990 066,[info@ianwatsons.com](mailto:info@ianwatsons.com),[Ian Watson's Driver Training Centre website](http://www.ianwatsons.com),Ian Watson's Driver Training Centre-53 Telegraph Road,[Ian Watson's Driver Training Centre website][Ian Watson's Driver Training Centre website](http://www.ianwatsonsdrivingschool.com)
Ian Watson's Driver Training Centre,,,6 Kawana Island Boulevard,,Warana,4575,-26.720711,153.128722,1300 786 088, 0468 990 066,[info@ianwatsons.com](mailto:info@ianwatsons.com),[Ian Watson's Driver Training Centre website](http://www.ianwatsons.com),Ian Watson's Driver Training Centre-6 Kawana Island Boulevard,[Ian Watson's Driver Training Centre website][Ian Watson's Driver Training Centre website](http://www.ianwatsonsdrivingschool.com)
Ian Watson's Driver Training Centre,,,Buddina State School,Cnr Tumut Street and Iluka Avenue,Buddina,4575,-26.7024994,153.1335881,1300 786 088, 0468 990 066,[info@ianwatsons.com](mailto:info@ianwatsons.com),[Ian Watson's Driver Training Centre website](http://www.ianwatsons.com),Ian Watson's Driver Training Centre-Buddina State School,[Ian Watson's Driver Training Centre website][Ian Watson's Driver Training Centre website](http://www.ianwatsonsdrivingschool.com)
Ian Watson's Driver Training Centre,,,179 Toolooa Street,,South Gladstone,4680,-23.8653982,151.2695153,1300 786 088, 0468 990 066,[info@ianwatsons.com](mailto:info@ianwatsons.com),[Ian Watson's Driver Training Centre website](http://www.ianwatsons.com),Ian Watson's Driver Training Centre-179 Toolooa Street,[Ian Watson's Driver Training Centre website][Ian Watson's Driver Training Centre website](http://www.ianwatsonsdrivingschool.com)
Ian Watson's Driver Training Centre,,,Lakeside Road,,Kurwongbah,4503,-27.2306738,152.9670597,1300 786 088, 0468 990 066,[info@ianwatsons.com](mailto:info@ianwatsons.com),[Ian Watson's Driver Training Centre website](http://www.ianwatsons.com),Ian Watson's Driver Training Centre-Lakeside Road,[Ian Watson's Driver Training Centre website][Ian Watson's Driver Training Centre website](http://www.ianwatsonsdrivingschool.com)
Ian Watson's Driver Training Centre,,,77 Zeigenfusz Road,,Thornlands,4164,-27.562332,153.261797,1300 786 088, 0468 990 066,[info@ianwatsons.com](mailto:info@ianwatsons.com),[Ian Watson's Driver Training Centre website](http://www.ianwatsons.com),Ian Watson's Driver Training Centre-77 Zeigenfusz Road,[Ian Watson's Driver Training Centre website][Ian Watson's Driver Training Centre website](http://www.ianwatsonsdrivingschool.com)
Ian Watson's Driver Training Centre,,,2 Bourbong Street,,Bundaberg East,4670,-24.8639689,152.3566535,1300 786 088, 0468 990 066,[info@ianwatsons.com](mailto:info@ianwatsons.com),[Ian Watson's Driver Training Centre website](http://www.ianwatsons.com),Ian Watson's Driver Training Centre-2 Bourbong Street,[Ian Watson's Driver Training Centre website][Ian Watson's Driver Training Centre website](http://www.ianwatsonsdrivingschool.com)
Ian Watson's Driver Training Centre,,,430 Branyan Driver,,Branyan,4670,-24.8926941,152.2917408,1300 786 088, 0468 990 066,[info@ianwatsons.com](mailto:info@ianwatsons.com),[Ian Watson's Driver Training Centre website](http://www.ianwatsons.com),Ian Watson's Driver Training Centre-430 Branyan Drive,[Ian Watson's Driver Training Centre website][Ian Watson's Driver Training Centre website](http://www.ianwatsonsdrivingschool.com)
Ian Watson's Driver Training Centre,,,87 Pheasant Ave,,Beenleigh,4207,-27.7032754,153.1956653,1300 786 088, 0468 990 066,[info@ianwatsons.com](mailto:info@ianwatsons.com),[Ian Watson's Driver Training Centre website](http://www.ianwatsons.com),Ian Watson's Driver Training Centre-87 Pheasant Ave,[Ian Watson's Driver Training Centre website][Ian Watson's Driver Training Centre website](http://www.ianwatsonsdrivingschool.com)
Ian Watson's Driver Training Centre,,,226 Cleveland-Redland Bay Road,,Thornlands,4164,-27.5691447,153.274816,1300 786 088, 0468 990 066,[info@ianwatsons.com](mailto:info@ianwatsons.com),[Ian Watson's Driver Training Centre website](http://www.ianwatsons.com),Ian Watson's Driver Training Centre-226 Cleveland-Redland Bay Road,[Ian Watson's Driver Training Centre website][Ian Watson's Driver Training Centre website](http://www.ianwatsonsdrivingschool.com)
Ian Watson's Driver Training Centre,,,Cnr Stoney Camp Road and Wynne Street,,Park Ridge South,4125,-27.7233563,153.0184517,1300 786 088, 0468 990 066,[info@ianwatsons.com](mailto:info@ianwatsons.com),[Ian Watson's Driver Training Centre website](http://www.ianwatsons.com),Ian Watson's Driver Training Centre-Cnr Stoney Camp Road and Wynne Street,[Ian Watson's Driver Training Centre website][Ian Watson's Driver Training Centre website](http://www.ianwatsonsdrivingschool.com)
Ian Watson's Driver Training Centre,,,Cnr Amelia and Franklin Streets,,Nundah,4012,-27.4039107,153.0700117,1300 786 088, 0468 990 066,[info@ianwatsons.com](mailto:info@ianwatsons.com),[Ian Watson's Driver Training Centre website](http://www.ianwatsons.com),Ian Watson's Driver Training Centre-Cnr Amelia and Franklin Street,[Ian Watson's Driver Training Centre website][Ian Watson's Driver Training Centre website](http://www.ianwatsonsdrivingschool.com)
Ian Watson's Driver Training Centre,,,36 Devine Court,,Morayfield,4506,-27.102506,152.9617613,1300 786 088, 0468 990 066,[info@ianwatsons.com](mailto:info@ianwatsons.com),[Ian Watson's Driver Training Centre website](http://www.ianwatsons.com),Ian Watson's Driver Training Centre-36 Devine Court,[Ian Watson's Driver Training Centre website][Ian Watson's Driver Training Centre website](http://www.ianwatsonsdrivingschool.com)
Ian Watson's Driver Training Centre,,,195 Elizabeth Avenue,,Clontarf,4019,-27.2469934,153.0700117,1300 786 088, 0468 990 066,[info@ianwatsons.com](mailto:info@ianwatsons.com),[Ian Watson's Driver Training Centre website](http://www.ianwatsons.com),Ian Watson's Driver Training Centre-195 Elizabeth Avenue,[Ian Watson's Driver Training Centre website][Ian Watson's Driver Training Centre website](http://www.ianwatsonsdrivingschool.com)
Ian Watson's Driver Training Centre,,,19 Tolmer Place,,Springwood,4127,-27.6260242,153.1306873,1300 786 088, 0468 990 066,[info@ianwatsons.com](mailto:info@ianwatsons.com),[Ian Watson's Driver Training Centre website](http://www.ianwatsons.com),Ian Watson's Driver Training Centre-19 Tolmer Place,[Ian Watson's Driver Training Centre website][Ian Watson's Driver Training Centre website](http://www.ianwatsonsdrivingschool.com)
Ian Watson's Driver Training Centre,,,120 Lemke Road,,Taigum,4018,-27.334819,153.0417873,1300 786 088, 0468 990 066,[info@ianwatsons.com](mailto:info@ianwatsons.com),[Ian Watson's Driver Training Centre website](http://www.ianwatsons.com),Ian Watson's Driver Training Centre-120 Lemke Road,[Ian Watson's Driver Training Centre website][Ian Watson's Driver Training Centre website](http://www.ianwatsonsdrivingschool.com)
Ian Watson's Driver Training Centre,,,2 Bonogin Road,,Mudgeeraba,4213,-28.093357,153.3658743,1300 786 088, 0468 990 066,[info@ianwatsons.com](mailto:info@ianwatsons.com),[Ian Watson's Driver Training Centre website](http://www.ianwatsons.com),Ian Watson's Driver Training Centre-2 Bonogin Road ,[Ian Watson's Driver Training Centre website][Ian Watson's Driver Training Centre website](http://www.ianwatsonsdrivingschool.com)
Ian Watson's Driver Training Centre,,,74 Pitt Road,,Burpengary,4505,-27.1684048,152.9625889,1300 786 088, 0468 990 066,[info@ianwatsons.com](mailto:info@ianwatsons.com),[Ian Watson's Driver Training Centre website](http://www.ianwatsons.com),Ian Watson's Driver Training Centre-74 Pitt Road,[Ian Watson's Driver Training Centre website][Ian Watson's Driver Training Centre website](http://www.ianwatsonsdrivingschool.com)
Ian Watson's Driver Training Centre,,,Frank Gilbert Drive,,Thabeban,4670,-24.893499,152.368831,1300 786 088, 0468 990 066,[info@ianwatsons.com](mailto:info@ianwatsons.com),[Ian Watson's Driver Training Centre website](http://www.ianwatsons.com),Ian Watson's Driver Training Centre-Frank Gilbert Drive,[Ian Watson's Driver Training Centre website][Ian Watson's Driver Training Centre website](http://www.ianwatsonsdrivingschool.com)
Ian Watson's Driver Training Centre,,,29 Beveridge Road,,Thornlands,4164,-27.574953,153.281954,1300 786 088, 0468 990 066,[info@ianwatsons.com](mailto:info@ianwatsons.com),[Ian Watson's Driver Training Centre website](http://www.ianwatsons.com),Ian Watson's Driver Training Centre-29 Beveridge Road,[Ian Watson's Driver Training Centre website][Ian Watson's Driver Training Centre website](http://www.ianwatsonsdrivingschool.com)
IMW Rider Training,,,24-42 Hennessy Street,,Harristown,4350,-27.5731018,151.9316016,(07) 4632 1848,0448 321 848,[platzfamily@hn.ozemail.com.au](mailto:platzfamily@hn.ozemail.com.au),,IMW Rider Training-24-42 Hennessy Street ,
IMW Rider Training,,,Cnr Spring and Ruthven Streets,,Toowoomba,4350,-27.6004938,151.9465213,(07) 4632 1848,0448 321 848,[platzfamily@hn.ozemail.com.au](mailto:platzfamily@hn.ozemail.com.au),,IMW Rider Training-Cnr Spring and Ruthven Streets,
"Knight's Rider Training, Consultation and Coaching",,,10 Mallet Street,,Kunda Park,4556,-26.6652372,153.0320766,0412 452 528,,[knightsridertraining@gmail.com.au](mailto:knightsridertraining@gmail.com.au),,Knight's Rider Training-10 Mallet Street,
Learn 2 Ride,,,Bells Road,,Palmyra,4751,-21.2124179,149.0708644,0447 714 336,,[brett@learn2ride.net.au](mailto:brett@learn2ride.net.au),[Learn 2 Ride website](http://www.learn2ride.net.au),Learn 2 Ride-Bells Road,[Learn 2 Ride website][Learn 2 Ride website](http://www.learn2ride.net.au)
Maclean Pines Driving School,,,57 Alexandra Street,,North Rockhampton,4124,-23.351032,150.5094833,1300 561 223,,[admin@mpds.net.au](mailto:admin@mpds.net.au),[Maclean Pines Driving School website](http://www.actm.net.au),Maclean Pines Driving School-Cnr Stoney Camp and Wynne Roads,
Maclean Pines Driving School,,,6708 Mt Lindsay Highway,,Gleneagle,4285,-27.9531045,152.9830904,1300 561 223,,[admin@mpds.net.au](mailto:admin@mpds.net.au),[Maclean Pines Driving School website](http://www.actm.net.au),Maclean Pines Driving School-6708 Mt Lindsay Highway,
MotoDNA,,,Lakeside Road,,Kurwongbah,4503,-27.2306738,152.9670597,0402 600 018,,[irish@motodna.com.au](mailto:irish@motodna.com.au),[MotoDNA website](http://www.motodna.com.au),MotoDNA-Lakeside Road,[MotoDNA website](http://www.motodna.com.au)
Motodojo,,,662 Compton Road,,Calamvale,4116,-27.613128,153.053934,0412 742 542,,[johnmotodojo@gmail.com](mailto:johnmotodojo@gmail.com),,Motodojo-662 Compton Road,
Motodojo,,,1 Coorparoo Road,,Warner,4500,-27.3266875,152.9595338,0412 742 542,,[johnmotodojo@gmail.com](mailto:johnmotodojo@gmail.com),,Motodojo-1 Coorparoo,
Motorcycle Masters Riding School,,,5–7 Shepparton Road,,Helensvale,4212,-27.9075342,153.3171913,(07) 3096 0362,,[motorcyclemasters.qride@gmail.com](mailto:motorcyclemasters.qride@gmail.com),[Motorcycle Masters Riding School website](http://www.qrides.com.au),Motorcycle Masters Riding School-5–7 Shepparton Road,
Motorcycle Masters Riding School,,,142 Siganto Drive,,Helensvale,4212,-27.8933314,153.3127668,(07) 3096 0362,,[motorcyclemasters.qride@gmail.com](mailto:motorcyclemasters.qride@gmail.com),[Motorcycle Masters Riding School website](http://www.qrides.com.au),Motorcycle Masters Riding School-142 Siganto Drive,
Motorcycle Riding School,,,187 Meakin Road,,Slacks Creek,4127,-27.646667,153.139284,1300 307 433,,[mrs@mcholdings.com.au](mailto:mrs@mcholdings.com.au),[Motorcycle Riding School website](http://www.teammoto.com.au),Motorcycle Riding School-187 Meakin Road,[Motorcycle Riding School website][Motorcycle Riding School website](http://www.teammoto.com.au)
Motorcycle Riding School,,,106 Pickering Street,,Enoggera,4051,-27.4193512,152.9925815,1300 307 433,,[mrs@mcholdings.com.au](mailto:mrs@mcholdings.com.au),[Motorcycle Riding School website](http://www.teammoto.com.au),Motorcycle Riding School-106 Pickering Street,[Motorcycle Riding School website][Motorcycle Riding School website](http://www.teammoto.com.au)
Motorcycle Riding School,,,969 Ipswich Road,,Moorooka,4105,-27.529142,153.018863,1300 307 433,,[mrs@mcholdings.com.au](mailto:mrs@mcholdings.com.au),[Motorcycle Riding School website](http://www.teammoto.com.au),Motorcycle Riding School-969 Ipswich Road,[Motorcycle Riding School website][Motorcycle Riding School website](http://www.teammoto.com.au)
Motorcycle Riding School,,,68 Moss Street,,Slacks Creek,4127,-27.621179,153.123371,1300 307 433,,[mrs@mcholdings.com.au](mailto:mrs@mcholdings.com.au),[Motorcycle Riding School website](http://www.teammoto.com.au),Motorcycle Riding School-68 Moss Street,[Motorcycle Riding School website][Motorcycle Riding School website](http://www.teammoto.com.au)
Motorcycle Riding School,,,60 Lawrence Drive,,Nerang,4211,-27.999035,153.346132,1300 307 433,,[mrs@mcholdings.com.au](mailto:mrs@mcholdings.com.au),[Motorcycle Riding School website](http://www.teammoto.com.au),Motorcycle Riding School-68 Moss Street,[Motorcycle Riding School website][Motorcycle Riding School website](http://www.teammoto.com.au)
Pro Honda Rider Training,,,Site 671 Beaufighter Avenue ,Archerfield Airport,Archerfield,4108,-27.5703116,153.0110765,(07) 3277 0722,0413 125 844,[reception@prohonda.com.au](mailto:reception@prohonda.com.au),[Pro Honda Rider Training website](http://www.promotorcycles.com.au),Pro Honda Rider Training-1430 Ipswich Road,[Pro Honda Rider Training website][Pro Honda Rider Training website](http://www.promotorcycles.com.au)
Pro Honda Rider Training,,,178 Drayton Street,,Dalby,4405,-27.195801,151.274463,(07) 3277 0722,0413 125 844,[reception@prohonda.com.au](mailto:reception@prohonda.com.au),[Pro Honda Rider Training website](http://www.promotorcycles.com.au),Pro Honda Rider Training-178 Drayton Street,[Pro Honda Rider Training website][Pro Honda Rider Training website](http://www.promotorcycles.com.au)
Pro Honda Rider Training,,,77 Tanahwa Forest Drive,,Forest Glen,4556,-26.701241,153.01633,(07) 3277 0722,0413 125 844,[reception@prohonda.com.au](mailto:reception@prohonda.com.au),[Pro Honda Rider Training website](http://www.promotorcycles.com.au),Pro Honda Rider Training-74 Schubert Road,[Pro Honda Rider Training website][Pro Honda Rider Training website](http://www.promotorcycles.com.au)
Queensland Motorcycle School,,,76 Nambour Connection Road,,Woombye,4559,-26.669993,152.992791,1300 666 273,0412 577 429,[mark@qldmotorcycleschool.com.au](mailto:mark@qldmotorcycleschool.com.au),[Queensland Motorcycle School website](http://www.queenslandmotorcycleschool.com.au/),Queensland Motorcycle School-76 Nambour Connection Road,[Queensland Motorcycle School website][Queensland Motorcycle School website](http://www.queenslandmotorcycleschool.com.au/)
Ride for Life Motorcycle Training,,,238-280 Steele Road,,Logan Village,4207,-27.789378,153.120529,,0409 628 892,[graham@rideforlifetraining.com.au](mailto:graham@rideforlifetraining.com.au),[Ride for Life Motorcycle Training website](http://www.rideforlifetraining.com.au/),Ride for Life Motorcycle Training- 238-280 Steele Road,[Ride for Life Motorcycle Training website](http://www.rideforlifetraining.com.au/)
Ride Smart Motorcycle Training,,,159 Osborne Road,,Mitchelton,4053,-27.41052,152.979983,(07) 3855 3777,0407 159 399,[info@ridesmart.com.au](mailto:info@ridesmart.com.au),[Ride Smart Motorcycle Training website](http://www.ridesmart.com.au),Ride Smart Motorcycle Training-159 Osborne Road,[Ride Smart Motorcycle Training website][Ride Smart Motorcycle Training website](http://www.ridesmart.com.au)
Ride Smart Motorcycle Training,,,65 Dew Street,,Runcorn,4113,-27.5901641,153.0721823,(07) 3855 3777,0407 159 399,[info@ridesmart.com.au](mailto:info@ridesmart.com.au),[Ride Smart Motorcycle Training website](http://www.ridesmart.com.au),Ride Smart Motorcycle Training-65 Dew Street,[Ride Smart Motorcycle Training website][Ride Smart Motorcycle Training website](http://www.ridesmart.com.au)
Ride Smart Motorcycle Training,,,Cnr Robertson and South Station Road,,Raceview,4305,-27.6299202,152.786476,(07) 3855 3777,0407 159 399,[info@ridesmart.com.au](mailto:info@ridesmart.com.au),[Ride Smart Motorcycle Training website](http://www.ridesmart.com.au),Ride Smart Motorcycle Training-Cnr Robertson and South Station Road,[Ride Smart Motorcycle Training website][Ride Smart Motorcycle Training website](http://www.ridesmart.com.au)
Riderzed,,,Lascelles Avenue,,Proserpine,4800,-20.480326,148.587011,(07) 4945 2279,0456 777 433,[norman24@bigpond.com](mailto:norman24@bigpond.com),[Riderzed website](http://www.qridewhitsunday.com.au),Riderzed-Lascelles Avenue,[Riderzed website][Riderzed website](http://www.qridewhitsunday.com.au)
Riderzed,,,10 Parkside Drive,,Condon,4815,-19.3215698,146.7157911,(07) 4945 2279,0456 777 433,[norman24@bigpond.com](mailto:norman24@bigpond.com),[Riderzed website](http://www.qridewhitsunday.com.au),Riderzed-10 Parkside drive,[Riderzed website][Riderzed website](http://www.qridewhitsunday.com.au)
Saferider Motorcycle Training,,,Cnr of Boundary Road and Tavistock Street,,Torquay,4655,-25.301316,152.862923,,0412 602 619,[tonydowns51@yahoo.com.au](mailto:tonydowns51@yahoo.com.au),[Saferider Motorcycle Training website](http://www.saferider.com.au/),Saferider Motorcycle Training-Cnr Boundary Road and Tavistock Road,[Saferider Motorcycle Training website](http://www.saferider.com.au/)
South Burnett Motorcycle Rider Training,,,10258 Bunya Highway,,Kingaroy,4610,-26.597649,151.813038,(07) 4162 3125,,[crogie@bigpond.com](mailto:crogie@bigpond.com),,South Burnett Motorcycle Rider Training-10258 Bunya Highway,
Stay Upright Motorcycle Techniques,,,1753-1799 Mt Cotton Road,,Cornubia,4130,-27.559872,153.1896226,1300 366 640,5596 5440,[qld@stayupright.com.au](mailto:qld@stayupright.com.au),[Stay Upright Motorcycle Techniques website](http://www.stayupright.com.au),Stay Upright Motorcycle Techniques-1753-1799 Mt Cotton Road,[Stay Upright Motorcycle Techniques website][Stay Upright Motorcycle Techniques website](http://www.stayupright.com.au)
Stay Upright Motorcycle Techniques,,,Cnr Mac Peak Crescent and McGregor Road,,Smithfield,4878,-16.822801,145.7048738,1300 366 640,5596 5440,[qld@stayupright.com.au](mailto:qld@stayupright.com.au),[Stay Upright Motorcycle Techniques website](http://www.stayupright.com.au),Stay Upright Motorcycle Techniques-Cnr Mac Peak Crescent and McGregor Road,[Stay Upright Motorcycle Techniques website][Stay Upright Motorcycle Techniques website](http://www.stayupright.com.au)
Stay Upright Motorcycle Techniques,,,Racecourse Drive,,Bundall,4217,-28.00478,153.4035772,1300 366 640,5596 5440,[qld@stayupright.com.au](mailto:qld@stayupright.com.au),[Stay Upright Motorcycle Techniques website](http://www.stayupright.com.au),Stay Upright Motorcycle Techniques-Racecourse Drive,[Stay Upright Motorcycle Techniques website][Stay Upright Motorcycle Techniques website](http://www.stayupright.com.au)
Stay Upright Motorcycle Techniques,,,641 Ashmore Road,,Ashmore,4214,-27.979874,153.364058,1300 366 640,5596 5440,[qld@stayupright.com.au](mailto:qld@stayupright.com.au),[Stay Upright Motorcycle Techniques website](http://www.stayupright.com.au),Stay Upright Motorcycle Techniques-641 Ashmore Road,[Stay Upright Motorcycle Techniques website][Stay Upright Motorcycle Techniques website](http://www.stayupright.com.au)
Stay Upright Motorcycle Techniques,,,Alabaster Drive,,Carrara,4211,-28.0098535,153.365528,1300 366 640,5596 5440,[qld@stayupright.com.au](mailto:qld@stayupright.com.au),[Stay Upright Motorcycle Techniques website](http://www.stayupright.com.au),Stay Upright Motorcycle Techniques-Alabaster Drive,[Stay Upright Motorcycle Techniques website][Stay Upright Motorcycle Techniques website](http://www.stayupright.com.au)
Streetwise Motorbike Training,,,Cnr George and Sutton Streets,,Mount Isa,4825,-20.7221839,139.4989734,0414 987 149,,[streetwisebikes@gmail.com](mailto:streetwisebikes@gmail.com),[Streetwise Motorbike Training website](http://www.streetwisebikes.com.au),Streetwise Motorbike Training-Cnr George and Sutton Streets,[Streetwise Motorbike Training website][Streetwise Motorbike Training website](http://www.streetwisebikes.com.au)
Streetwise Motorbike Training,,,Go Kart Track Complex,233 Shaw Road,Bohle,4818,-19.280528,146.697896,0414 987 149,,[streetwisebikes@gmail.com](mailto:streetwisebikes@gmail.com),[Streetwise Motorbike Training website](http://www.streetwisebikes.com.au),Streetwise Motorbike Training-Go Kart Track Complex,[Streetwise Motorbike Training website][Streetwise Motorbike Training website](http://www.streetwisebikes.com.au)
Streetwise Motorbike Training,,,14 Golf Links Drive,,Kirwan,4817,-19.315973,146.710772,0414 987 149,,[streetwisebikes@gmail.com](mailto:streetwisebikes@gmail.com),[Streetwise Motorbike Training website](http://www.streetwisebikes.com.au),Streetwise Motorbike Training-Jack,[Streetwise Motorbike Training website][Streetwise Motorbike Training website](http://www.streetwisebikes.com.au)
Streetwise Motorbike Training,,,55-95 Boundary Street,,Townsville,4817,-19.315973,146.710772,0414 987 149,,[streetwisebikes@gmail.com](mailto:streetwisebikes@gmail.com),[Streetwise Motorbike Training website](http://www.streetwisebikes.com.au),Streetwise Motorbike Training-Jack,[Streetwise Motorbike Training website][Streetwise Motorbike Training website](http://www.streetwisebikes.com.au)
Sunshine Coast Motorcycle Rider Training,,,95 Beckmans Road,,Tewantin,4566,-26.4095481,153.0287109,(07) 5442 4806,0418 879 820,[qridenoosa@gmail.com](mailto:qridenoosa@gmail.com),[Sunshine Coast Motorcycle Rider Training website](http://www.qridenoosa.com.au),Sunshine Coast Motorcycle Rider Training-95 Beckmans Road,
Sunshine Coast Motorcycle Rider Training,,,McKinnon Drive,,Tewantin,4565,-26.3765244,153.0152372,(07) 5442 4806,0418 879 820,[qridenoosa@gmail.com](mailto:qridenoosa@gmail.com),[Sunshine Coast Motorcycle Rider Training website](http://www.qridenoosa.com.au),Sunshine Coast Motorcycle Rider Training-McKinnon Drive,
TK's Driving School,,,21-41 Pillar Street,,Toowoomba,4350,-27.604322,151.955315,(07) 4659 5566,,[bencable@bigpond.com](mailto:bencable@bigpond.com),[TK's Driving School website](http://www.tks.com.au),TK's Driving School-21-41 Pillar Street,[TK's Driving School website][TK's Driving School website](http://www.tks.com.au)
Tony's Rider Training,,,Cnr Arthur and Mary Streets,,Toowoomba,4350,-27.5599484,151.9665499,0437 724 665,,[tonysridertraining@hotmail.com](mailto:tonysridertraining@hotmail.com),,Tony's Rider Training-Cnr Arthur and Mary Streets,
Top Rider (Australia),,,260 Marrawing Road,,Benaraby,4680,-24.036702,151.362451,1300 131 362,,[info@toprider.com.au](mailto:info@toprider.com.au),[Top Rider (Australia) website](http://www.toprider.com.au),Top Rider (Australia)-260 Marrawing Road,[Top Rider (Australia) website][Top Rider (Australia) website](http://www.toprider.com.au)
Top Rider (Australia),,,39 Lawrence Drive,,Nerang,4211,-28.001376,153.346421,1300 131 362,,[info@toprider.com.au](mailto:info@toprider.com.au),[Top Rider (Australia) website](http://www.toprider.com.au),Top Rider (Australia)-39 Lawrence Drive,[Top Rider (Australia) website][Top Rider (Australia) website](http://www.toprider.com.au)
Top Rider (Australia),,,514 Gilston Road,,Gilston,4211,-28.024721,153.3053,1300 131 362,,[info@toprider.com.au](mailto:info@toprider.com.au),[Top Rider (Australia) website](http://www.toprider.com.au),Top Rider (Australia)-514 Gilston Road,[Top Rider (Australia) website][Top Rider (Australia) website](http://www.toprider.com.au)
Top Rider (Australia),,,55-95 Boundary Street,,Townsville,4810,-19.271053,146.811377,1300 131 362,,[info@toprider.com.au](mailto:info@toprider.com.au),[Top Rider (Australia) website](http://www.toprider.com.au),Top Rider (Australia)-55-95 Boundary Street,[Top Rider (Australia) website][Top Rider (Australia) website](http://www.toprider.com.au)
Top Rider (Australia),,,170 Pierce Avenue,,Meridan Plains,4869,-17.0038929,145.7359593,1300 131 362,,[info@toprider.com.au](mailto:info@toprider.com.au),[Top Rider (Australia) website](http://www.toprider.com.au),Top Rider (Australia)-Cnr Bicentennial and Robert Roads,[Top Rider (Australia) website][Top Rider (Australia) website](http://www.toprider.com.au)
Top Rider (Australia),,,Cnr Old Cleveland and Tilley Roads,,Chandler,4155,-27.5097465,153.1495615,1300 131 362,,[info@toprider.com.au](mailto:info@toprider.com.au),[Top Rider (Australia) website](http://www.toprider.com.au),Top Rider (Australia)-Cnr Old Cleveland and Tilley Roads,[Top Rider (Australia) website][Top Rider (Australia) website](http://www.toprider.com.au)
Top Rider (Australia),,,Cnr Severin Street and Mulgrave Road,,Cairns,4870,-16.924933,145.7644133,1300 131 362,,[info@toprider.com.au](mailto:info@toprider.com.au),[Top Rider (Australia) website](http://www.toprider.com.au),Top Rider (Australia)-Cnr Severin Street and Mulgrave Road,[Top Rider (Australia) website][Top Rider (Australia) website](http://www.toprider.com.au)
Top Rider (Australia),,,Cnr Spring and Ruthven Streets,,Toowoomba,4350,-27.6004938,151.9465213,1300 131 362,,[info@toprider.com.au](mailto:info@toprider.com.au),[Top Rider (Australia) website](http://www.toprider.com.au),Top Rider (Australia)-Cnr Spring and Ruthven Streets,[Top Rider (Australia) website][Top Rider (Australia) website](http://www.toprider.com.au)
Top Rider (Australia),,,Fishermans Road,,Maroochydore,4558,-26.6474204,153.0560019,1300 131 362,,[info@toprider.com.au](mailto:info@toprider.com.au),[Top Rider (Australia) website](http://www.toprider.com.au),Top Rider (Australia)-Fishermans Road,[Top Rider (Australia) website][Top Rider (Australia) website](http://www.toprider.com.au)
Top Rider (Australia),,,Meridan Way,,Meridan Plains,4551,-26.7595837,153.095724,1300 131 362,,[info@toprider.com.au](mailto:info@toprider.com.au),[Top Rider (Australia) website](http://www.toprider.com.au),Top Rider (Australia)-Meridan Way,[Top Rider (Australia) website][Top Rider (Australia) website](http://www.toprider.com.au)
Top Rider (Australia),,,"171-201 Boundary Road, Ooalea",,Mackay,4740,-21.175,149.137523,1300 131 362,,[info@toprider.com.au](mailto:info@toprider.com.au),[Top Rider (Australia) website](http://www.toprider.com.au),Top Rider (Australia)-Meridan Way,[Top Rider (Australia) website][Top Rider (Australia) website](http://www.toprider.com.au)
Top Rider (Australia),,,Scriha Street,,North Mackay,4740,-21.111479,149.170233,1300 131 362,,[info@toprider.com.au](mailto:info@toprider.com.au),[Top Rider (Australia) website](http://www.toprider.com.au),Top Rider (Australia)-Scriha Street,[Top Rider (Australia) website][Top Rider (Australia) website](http://www.toprider.com.au)
Top Rider (Australia),,,Upper Ulam Road,,Bajool,4699,-23.6382656,150.4897261,1300 131 362,,[info@toprider.com.au](mailto:info@toprider.com.au),[Top Rider (Australia) website](http://www.toprider.com.au),Top Rider (Australia)-Upper Ulam Road,[Top Rider (Australia) website][Top Rider (Australia) website](http://www.toprider.com.au)
Top Rider (Australia),,,Woodlands Boulevard,,Meridan Plains,4551,-26.7561343,153.1052089,1300 131 362,,[info@toprider.com.au](mailto:info@toprider.com.au),[Top Rider (Australia) website](http://www.toprider.com.au),Top Rider (Australia)-Woodlands Boulevard,[Top Rider (Australia) website][Top Rider (Australia) website](http://www.toprider.com.au)
Top Rider (Australia),,,Thomson Road,,Edmonton,4869,-17.0152251,145.7550056,1300 131 362,,[info@toprider.com.au](mailto:info@toprider.com.au),[Top Rider (Australia) website](http://www.toprider.com.au),Top Rider (Australia)-Thomson Road,[Top Rider (Australia) website][Top Rider (Australia) website](http://www.toprider.com.au)
Top Rider (Australia),,,63 Springfield-Greenbank Arterial,,Springfield,4871,-27.6702415,152.9064462,1300 131 362,,[info@toprider.com.au](mailto:info@toprider.com.au),[Top Rider (Australia) website](http://www.toprider.com.au),Top Rider (Australia)-63 Springfield-Greenbank Arterial,[Top Rider (Australia) website][Top Rider (Australia) website](http://www.toprider.com.au)
Top Rider (Australia),,,14 Golf Links Drive,,Kirwan,4817,-19.316176,146.710761,1300 131 362,,[info@toprider.com.au](mailto:info@toprider.com.au),[Top Rider (Australia) website](http://www.toprider.com.au),Top Rider (Australia)-14-Golf,[Top Rider (Australia) website][Top Rider (Australia) website](http://www.toprider.com.au)
Top Rider (Australia),,,33 Champions Way,,Willowbnk,4306,-27.691883,152.665394,1300 131 362,,[info@toprider.com.au](mailto:info@toprider.com.au),[Top Rider (Australia) website](http://www.toprider.com.au),Top Rider (Australia)-14-Golf,[Top Rider (Australia) website][Top Rider (Australia) website](http://www.toprider.com.au)
Top Rider (Australia),,,1 Russell Street,,Goondiwindi,4390,-28.5359038,150.2923038,1300 131 362,,[info@toprider.com.au](mailto:info@toprider.com.au),[Top Rider (Australia) website](http://www.toprider.com.au),Top Rider (Australia)-14-Golf,[Top Rider (Australia) website][Top Rider (Australia) website](http://www.toprider.com.au)
