Name,Address,Suburb,Postcode,Latitude,Longtitude
Bay Island Transit Ticket Office,Redland Bay Ferry Terminal  Weinam Creek Marina,Redland Bay,4165,-27.616194,153.30831
Bloomfield Street News,115 - 117 Bloomfield Street,Cleveland,4163,-27.527541,153.26668
Brisbane Visitor Information Centre ,Regent Theatre Queen St Mall,Brisbane (city),4000,-27.469771,153.02512
Pacific News and Casket,4  Bulcock Street,Caloundra,4551,-26.805002,153.1312
Campus News,"Staffhouse Road, Union Complex, UQ (building 4)",St Lucia,4067,-27.49704,153.01554
Eagle Street News,"Ground Floor, 70 Eagle Street",Brisbane (city),4000,-27.467317,153.02952
Broadbeach South Tram Station Kiosk,Kiosk Site No 15 Corner Gold Coast Highway and Hooker Boulevard,Broadbeach ,4218,-28.034292,153.43106
Cavill Ave Kiosk Tram Station Kiosk,Kiosk Site 9 Cavill Ave Tram Station,Surfers Paradise ,4217,-28.001641,153.4284
GPO News Extra,"Shop 1, 40 Creek Street",Brisbane (city),4000,-27.467704,153.02898
Lucky Dragon Australia Fair ,Australia Fair Shopping Centre 42 Marine Parade ,Southport ,4215,-27.968057,153.41592
Mater News Central,550 Stanley Street,Woolloongabba,4102,-27.486354,153.03428
Metro News Indooroopilly,"Level 3, Indooroopilly Shoppingtown",Indooroopilly,4068,-27.4984,152.9712
Nathan Post Office,"Kessels Road, Community Centre, Griffith University",Nathan,4111,-27.552662,153.05372
NewsXpress Caboolture,"Matthew Terrace, corner James Street",Caboolture,4510,-27.083284,152.9533
NewsXpress Deception Bay,"Shop 16 Deception Bay SC, Bay Avenue",Deception Bay,4508,-27.194617,153.028951
NewsXpress Harbour Town,Shop M2 Harbour Town Shopping Centre,Biggera Waters,4126,-27.931693,153.38786
NewsXpress Kawana,"Shop 353, Kawana Shopping World, Point Cartwright Drive",Buddina,4575,-26.702873,153.13081
NewsXpress Myer Centre Level E,"Queen Street Mall, Myer Centre (level E)",Brisbane (city),4000,-27.471647,153.02257
NewsXpress Robina,"Shop 1, Market Hall Robina Town Centre",Robina,4230,-28.077581,153.3852
NewsXpress Surfers Paradise ,Shop G43/3240 Surfers Paradise Blvd,Surfers Paradise,4217,-27.999616,153.42783
NewsXpress Westpoint,"Westpoint Plaza Shopping Centre, Browns Plains Road",Browns Plains,4118,-27.662814,153.05494
Nextra Bribie Island News,"Shop 10- 11 Bribie Island Shopping Centre, 293 Goodwin Road",Bribie Island,4507,-26.9861,153.13252
Nextra Burleigh Heads,"Stockland Burleigh Shopping Centre, West Burleigh Road",Burleigh Heads,4220,-28.09794,153.44299
Nextra Carindale News,"Upper Level Westfield Carindale, Creek Road",Carindale,4152,-27.504422,153.09987
Nextra Chermside,"Westfield Shopping Centre, Gympie Road",Chermside,4032,-27.383835,153.03014
Nextra Logan Hyperdome,"Shop 128, Logan Hyperdome",Loganholme,4129,-27.664544,153.18412
Nextra Mt Gravatt Upper Level,"Garden City (upper level), Logan Road",Mt Gravatt,4122,-27.561815,153.08232
Nextra Mt Ommaney,Mt Ommaney Shopping Centre,Mt Ommaney,4074,-27.548833,152.93798
Nextra Swan Newsagency,"Shop 137 Sunshine Plaza, Horton Parade",Maroochydore,4558,-26.655991,153.09238
Post Office Square News,280 Queen Street,Brisbane (city),4000,-27.467192,153.02787
Rankins on the Mall,Queen Street,Brisbane (city),4000,-27.467336,153.02826
Resort News,"Pacific Fair Shopping Centre, Flinders Street",Broadbeach,4128,-28.036533,153.42803
Riverside Ferry Terminal Ticket Office,"123 Eagle St, Riverside",Brisbane (city),4000,-27.467164,153.03039
Stones Corner News,347 Logan Road,Stones Corner,4120,-27.552971,153.07988
Sunnybank Hills News,Sunny Hill Shopping Town,Sunnybank Hills,4109,-27.610167,153.05527
Sunnybank News and Casket Agency,"Shop 22 Sunnybank Plaza, Mains Road",Sunnybank,4109,-27.586722,153.06072
Supanews North Lakes,"Shop 1085, Westfield Shopping Centre North Ladkes",North Lakes,4509,-27.23997,153.01622
The University Co-operative Bookshop,University of the Sunshine Coast,Sippy Downs,4556,-26.718038,153.06965
WH Smith Central Station ,"Central Concourse, Central Station",Brisbane (city),4000,-27.466649,153.02568
Albany Creek News,"Shop 13, 700 Albany Creek Road",Albany Creek,4035,-27.352989,152.99129
Ascot News,71 Racecourse Road,Hamilton,4007,-27.43625,153.06512
Ashgrove News,"Ashgrove Shopping Centre, 16 Ashgrove Avenue",Ashgrove,4060,-27.444664,152.99339
Beaudesert News,97 Brisbane St,Beaudesert,4285,-27.987685,152.99595
Broadbeach News and Casket,2703 Gold Coast Highway,Broadbeach,4218,-28.029167,153.43056
Broadcast News,"Shop 1, 39 Sherwood Road",Toowong,4006,-27.485143,152.99159
Burstall Avenue News,"Belmont Shopping Complex, Cnr Burstall Ave and Belmont Rd",Belmont,4153,-27.483594,153.126078
Camp Hill Newsagency,569 Old Cleveland Road,Camp Hill,4152,-27.492698,153.07524
Capalaba Park News,"Capalaba Park Shopping Centre, Redland Bay Rd",Capalaba,4157,-27.524364,153.19085
Carina Newsagency,836 Old Cleveland Rd,Carina,4152,-27.495508,153.08877
Casino News,131 George Street,Brisbane (city),4000,-27.47227,153.02511
City News,10 Eagle Street,Brisbane (city),4000,-27.469208,153.0298
Coorparoo News,"Shop 6, Coorparoo Convenience Centre, 208 Old Cleveland Road",Coorparoo,4151,-27.496776,153.05417
Exchange Casket Agency,360 Queen St ,Brisbane (city),4000,-27.466216,153.02913
Ezymart King George Square ,KGCS Busway ,Brisbane (city),4000,-27.468949,153.02434
Foodworks Wishart,"590 Mt Gravatt – Capalaba Road, Wishart 4122",Wishart,4122,-27.548834,153.10738
Forest Lake Village News,"Forest Lake Village Shopping Centre, Forest Lake Boulevard",Forest Lake,4078,-27.624465,152.96857
Friendly Grocer Crestmead,5/13 Julie Street,Crestmead,4132,-27.696708,153.08251
Gasworks News,"Gasworks Plaza, Shop E5E/76 Skyring Terrace",Newstead,4006,-27.450167,153.04446
George Street News,370 George Street,Brisbane (city),4000,-27.468998,153.02132
Greenslopes Newsagency,"Shop 19, Greenslopes Mall, 700 Logan Road",Greenslopes,4120,-27.511977,153.05375
Good Price Pharmacy Deagon,"Deagon Market Square Shop 13,79 Braun Street",Deagon ,4017,-27.329654,153.05732
Griffiths University Gold Coast Student Guild,"Griffith University, Parklands Drive, The Link Building, Gold Coast Campus",Southport,4215,-27.964655,153.38091
Holland Park News,Shop 1/109 Seville Road,Holland Park,4121,-27.521684,153.07407
IGA Acacia Ridge,"28 Elizabeth St, Acacia Ridge",Acacia Ridge,4110,-27.590346,153.02729
IGA East Brisbane,33 Lytton Road,East Brisbane,4169,-27.479564,153.04265
IGA Greenslopes ,620 Logan Road ,Greenslopes,4120,-27.50823,153.05203
IGA New Farm ,572 Brunswick Street ,New Farm ,4005,-27.461821,153.03966
IGA Cleveland ,Shore Street West and Wellington Road,Cleveland ,4163,-27.523448,153.25517
Inala Plaza News,"Shop 4, Inala Civic Centre, Corsair Avenue",Inala,4077,-27.597539,152.9736
Infinity News Underwood,3215 Logan Road,Underwood,4119,-27.606091,153.10953
Jindalee News Stationers,"5/86 Curragundi Road, Jindalee",Jindalee,4074,-27.534688,152.93517
Junction News and Casket,492 Ipswich Road,Annerley ,4103,-27.510667,153.03261
Kallangur Fair News,Kallangur Fair Shopping Centre Shop 1 & 2 1473 Anzac Ave ,Kallangur,4503,-27.251317,152.99924
Kallangur News,1406 Anzac Ave,Kallangur,4503,-27.250223,152.99363
Kedron Newsagency & Casket Shop,359 Gympie Road (cnr Castle Road),Kedron,4031,-27.404369,153.03233
Kelvin Grove News & Post Office,"Victoria Park Road, QUT (C block)",Kelvin Grove,4059,-27.451146,153.01509
Kenmore News & Casket,"2060 Moggill Road, Kenmore",Kenmore,4069,-27.509952,152.93839
Manly Harbour Newsagency,"Shop 12, 222 Stratton Terrace",Manly,4179,-27.454643,153.18578
Mary Ryan Bookstore,"40 Park Road, Milton",Milton,4064,-27.471379,153.00517
Mary Street News,"Shop 4, 100 Edward Street ",Brisbane (city),4000,-27.470639,153.02874
Merthyr Road News,3/84 Merthyr Road ,New Farm ,4005,-27.467146,153.04579
Metro News On First,"Indooroopilly Shopping Centre, Level 1, 322 Moggill Road",Indooroopilly,4068,-27.499611,152.97264
Middle Park News and Gifts,"Shop 27-28 Park Village Shops, Middle Park",Middle Park,4074,-27.55543,152.9227
Milton News Centre,"Shop 3, Milton Shopping Centre, Baroona Road",Milton,4064,-27.468045,153.0021
Mineral House News,41 George Street,Brisbane (city),4000,-27.47358,153.02655
Moorvale News,186 Beaudesert Road,Moorooka,4105,-27.532592,153.02506
Morningside Central News,"Shop 11, 25 Junction Road",Morningside,4170,-27.465976,153.08007
Mt Gravatt News,1488 Logan Road,Mt Gravatt ,4122,-27.536508,153.07816
Nextra Gumdale,"Shop 4, 696 New Cleveland Road",Gumdale,4154,-27.490327,153.15249
NewsXpress Arana Hills,Shop 13B Kmart Plaza Cnr Patricks Road,Arana Hills,4054,-27.398801,152.95905
NewsXpress North Lakes ,103/53 Endeavour Blvd,North Lakes ,4509,-27.238383,153.01562
NewsXpress The Gap,"The Gap Village, 1000 Waterworks Road",The Gap,4061,-27.446135,152.9525
Nextra Booval News,Shop 51-53 Booval Fair Shopping Centre ,Booval ,4304,-27.615647,152.78944
Nextra Brook News and Casket,"Brookside Shopping Centre, Shop 90, Osbourne Road ",Mitchelton ,4053,-27.409154,152.97937
Nextra Browns Plains ,"Grand Plaza Shopping Centre, 27-49 Browns Plains Road",Browns Plains,4124,-27.662644,153.04097
Nextra Cannon Hill,"K-Mart Plaza, Creek Road",Cannon Hill,4170,-27.471339,153.0981
Nextra Carindale City News,"Lower level Westfield Carindale, 1151 Creek Road",Carindale,4152,-27.502998,153.10163
Nextra Express Chermside,Shop 192 Westfield Chermside,Chermside,4032,-27.384703,153.03206
Nextra Garden City Lower level,Shop 1358 Westfield Garden City,Upper Mt Gravatt ,4122,-27.564293,153.08381
Nextra General Hospital News,"Ned Hanlon Building, Royal Brisbane Hospital",Herston,4006,-27.446713,153.02875
Nextra Kippa-Ring News,27/284 Anzac Ave,Kippa Ring ,4021,-27.231267,153.1143
Nextra Orion Newsagency,"Shop 29, 1 Main Street Orion Springfield",Springfield,4300,-27.67711,152.90299
Nextra Peninsula Fair News,"Shop K4, Peninsula Fair Shopping Centre, Anzac Avenue",Kippa Ring,4021,-27.225752,153.088
Nextra Strathpine ,"Shop 36-37,  295 Gympie Road",Strathpine ,4055,-27.30726,152.99238
Nextra Toombul,Sandgate Road,Toombul,4012,-27.409059,153.06163
Nextra Wynnum Plaza,"Shop 20, Wynnum Plaza, Wynnum Road",Wynnum,4178,-27.456747,153.15581
Night Owl Convenience Store New Farm,660 Brunswick Street,New Farm,4005,-27.463144,153.04153
NightOwl Brisbane ,65 Adelaide Street ,Brisbane ,4000,-27.46932,153.02408
NightOwl Mermaid Beach,2375 Gold Coast Highway,Mermaid Beach ,4218,-28.050128,153.43662
NightOwl Milton,22 Railway Tce ,Milton,4064,-27.46921,153.00605
NightOwl Surfers Paradise,3031 Surfers Paradise Blvd,Surfers Paradise,4217,-28.005352,153.42913
Norman Park Central News,Shop 1/183 Bennetts Road,Norman Park,4170,-27.483586,153.06468
Nottingham Road News,"Shop 8, 2605 Beaudesert Road",Calamvale,4116,-27.630641,153.04587
Oxford Street News,134 Oxford Street,Bulimba,4171,-27.450989,153.05825
Paddington News ,"Shop 5, 95 Latrobe Terrace",Paddington,4064,-27.458964,152.99832
Park Ridge News,Park Ridge Shopping Village corner Mt Lindesay Hwy and Park Ridge Road,Park Ridge,4125,-27.696778,153.03892
Pinkeys Convenience Store ,"17 Zillman Road, Hendra",Clayfield,4011,-27.422308,153.06375
QUT Student Guild Gardens Point,"2 George Street, QUT, Gardens Point campus (L block)",Brisbane (city),4000,-27.477356,153.02842
Redland Bay News ,"Shop 29, Redland Bay Shopping Centre, Broadwater Terrace ",Redland Bay,4165,-27.612128,153.30224
Riding Road News,63 Riding Road,Hawthorne,4171,-27.466548,153.06481
Rochedale News,"549 Underwood Road, Rochedale",Rochedale,4123,-27.59653,153.12486
Rode Newsagency,"Rode Shopping Centre, Cnr Appleby & Roade Road",Stafford Heights ,4053,-27.39245,153.01203
Rothwell News,Shop 8/455 Anzac Ave,Rothwell,4022,-27.218214,153.06257
Russell Island Licensed Post Office,69 High Street,Russell Island,4184,-27.648288,153.38148
South Bank Beach News,"Stanley Street Plaza, Stanley Street",South Bank,4101,-27.478627,153.0229
SPAR Express Eight Mile Plains,5/218 Padstow Road,Eight Mile Plains,4113,-27.574639,153.08683
Springfield Fair News,Springfield Fair Shopping Centre ,Springfield,4300,-27.653005,152.9184
Springwood Mall Newsagency ,"Shop 9, Centro Shopping Centre, Fitzgerald Avenue",Springwood,4127,-27.614058,153.12679
St Lucia News,217 Hawken Drive,St Lucia,4067,-27.502579,153.00588
Stafford City News,"Stafford City Shopping Centre, 400 Stafford Road",Stafford,4053,-27.411309,153.01239
Sunshine News,"Shop 15, Mt Gravatt Plaza",Mt Gravatt,4122,-27.539183,153.08253
Supanews Keperra,"Settlement Road, Great Western Super Centre",Keperra,4054,-27.415981,152.94988
Supanews Xpress,"Central station (platform 5/6), Ann Street ",Brisbane (city),4000,-27.465669,153.02593
Supanews Xpress Helensvale,Helensvale Westfield Shopping Centre,Helensvale,4212,-27.927273,153.33581
Taigum News,"Shop 28, Taigum Central Shopping Centre, Beams Road",Taigum,4018,-27.351025,153.04863
Target News,"Shop 2 Buranda Village, 205 Ipswich Road",Woolloongabba,4102,-27.501082,153.03678
Terry White Chemist Bellbowrie ,"Shop 29, Bellbowrie Plaza, 37 Birkin Road",Bellbowrie,4070,-27.562891,152.88826
Tewantin Newsagency,107 Poinciana Avenue,Tewantin,4565,-26.392066,153.03843
The HUB ,Gold Coast Airport Eastern Drive ,Bilinga,4225,-28.165645,153.50907
Town Centre News,"Town Centre Shopping Centre, 355-369 Colburn Avenue",Victoria Point,4165,-27.58651,153.28445
TSG Mango Hill,Shop 12/1-21 Halpine Drive,Mango Hill,4509,-27.589742,153.08654
Warrigal Square News ,"Warrigal Square Shopping Centre, 15/261 Warrigal Road ",Eight Mile Plains,4113,-27.589964,153.08624
West End News,199 Boundary Street,West End,4101,-27.480751,153.01186
Wirreanda Newsagency,110 King Street,Buderim,4556,-26.683887,153.06612
Gold Coast Tourist Shuttle,PO Box 3036 ,Robina,4230,-28.0637,153.40404
Ashmore Newsextra,"160 Cotlew Street, Ashmore Plaza",Ashmore,4214,-27.987229,153.38411
Australia Post Office Coopers Plains ,7/896 Boundary Road ,Coopers Plains,4108,-27.570007,153.03614
Banyo News and Officesmart,276 St Vincents Road,Banyo,4014,-27.37451,153.07781
Biota Street News,155 Biota Street,Inala,4077,-27.587409,152.97284
Bli Bli News,"Shop 5, River Markets, David Low Way",Bli Bli,4560,-26.621848,153.0423
Blunder Road Newsagency,146 Blunder Road,Oxley,4075,-27.575434,152.98328
Bond University Bookshop,"Shop 5-6, Commercial Centre, Bond University",Robina,4229,-28.073659,153.41701
BP Cooroy Supermart,28 Elm Street,Cooroy,4563,-26.418233,152.91188
BP Yandina Foodshop,24 Farrell Street,Yandina,4561,-26.559982,152.95665
Broadbeach Oasis News ,G0.35 Oasis on Broadbeach Victoria Avenue ,Broadbeach,4218,-28.029892,153.43234
Buderim Foodworks,60 Burnett Street ,Buderim,4556,-26.686414,153.04955
Burpengary Newsagency ,"Shop 22 Burpengary Plaza, Station Road",Burpengary,4505,-27.154035,152.97427
Campus Bookshop Griffith University Gold Coast ,The Link Building (G07) Griffith University Gold Coast Campus ,Southport,4215,-27.960053,153.37887
Central Plaza News ,59 Wembley Road ,Logan Central,4114,-27.643085,153.11263
Chapel Hill,8/620 Moggill Rd,Chapel Hill,4069,-27.505852,152.96071
Chatswood Hills News,"Shop 34 Chatswood Central, Chatswood Rd",Springwood,4127,-27.633023,153.13779
Chevron 7 Day Express Food Store,46 Thomas Drive,Surfers Paradise,4217,-27.998198,153.41936
Chris Supa IGA,881 Old Cleveland Road,Carina,4152,-27.496226,153.09482
Christine Corner,5/221 Christine Avenue,Varsity Lakes,4227,-28.085385,153.42483
Clock Corner Convenience Store & Take-away,13/521 Beams Rd,Carseldine,4034,-27.3482,153.028
Collingwood Park News,"Shop 1, Redbank Plaza Shopping Centre, Collingwood Drive",Redbank,4301,-27.6059,152.868
Colonial Village 4 Espresso 351,351 Beams Road ,Zillmere,4034,-27.350306,153.04126
Cribb Street News ,6/23 Cribb Street,Milton,4064,-27.469402,153.00825
Currimundi News,Cnr Nicklin Way and Bellara Drive,Currimundi,4551,-26.773831,153.1243
Currumbin Creek Newsagency,52 Currumbin Creek Road,Currumbin,4223,-28.144164,153.47252
Daisy Hill News,"Shop 7, Cnr Daisy Hill Rd and Cupania Street",Daisy Hill ,4127,-27.642944,153.15371
Dockside Convinence Store,"Shop 5, 35 Ferry Street",Kangaroo Point,4169,-27.472558,153.03896
Earls Court Serviced Apartments,131-133 Nerang Street,Southport,4215,-27.971273,153.40699
Enoggera Newsagency,"Shop 2B, 318 Wardell Street",Enoggera,4051,-27.422652,152.99032
Eumundi Village Pharmacy,1 / 2 - 6 Ethridge Street,Eumundi,4562,-26.475572,152.95065
Ferny Hills News & Casket,"Shop 11, 126 Ferny Way",Ferny Hills,4055,-27.4003,152.939
Foodstore Mermaid Beach,Shop 4/ 2527 Gold Coast Hwy,Mermaid Beach,4218,-28.040764,153.43422
Foodworks Heathwood,137 Parkwood Drive,Heathwood,4078,-27.637003,152.987
Foodworks Salisbury,Shop 4 / 660 Toohey Road,Salisbury,4107,-27.545804,153.03949
Four Square ,18 Cracknell Road,Annerley,4103,-27.518339,153.03014
Friendly Grocer Broadbeach,"Shop 10, Belair Retail Centre, Gold Coast Highway,Broadbeach",Broadbeach,4218,-28.035828,153.43195
Friendly Grocer Ormiston,Shop 1  116 Wellington Street,Ormiston ,4160,-27.696258,153.0831
Gatton Plaza Newsagency ,7/8 Plaza Shopping Centre Spencer St,Gatton,4343,-27.558271,152.27953
Given Terrace Newsagency,Shop 1/209 Given Terrace,Paddington,4064,-27.4616,153.006
Gold Coast Tourism Information Desk,"Gold Coast Airport, Eastern Avenue",Bilinga,4225,-28.165616,153.50904
Gold Coast Tourism Visitor Information Booth ,2 Cavill Avenue,Surfers Paradise,4217,-28.001854,153.42917
Greenbank Plaza News,"Shop 3, 15 Pub Lane",Greenbank,4124,-27.7383,152.983
H I S Australia Pty LTd,141 Queen Street ,Brisbane ,4000,-27.469672,153.02569
Helensvale Railway Kiosk,Town Centre Drive ,Helensvale ,4212,-27.925426,153.33838
IGA Express Woolloongabba,14 Annerley Road,Woolloongabba,4102,-27.487103,153.02951
IGA Springfield Lakes ,31/22 Springfield Lakes Boulevard,Springfield,4300,-27.668088,152.92054
IGA Forest Lake,Corner Forest Lake Boulevard and Woogaroo Street,Forest Lake,4078,-27.6112,152.959
Japan Australian Travel Services ,35 Bailey Crescent ,Southport,4215,-27.970434,153.38959
Kallangur Fair News,1473 Anzac Avenue,Kallangur,4503,-27.2501,152.999
Jimboomba Newsxpress,Shop 10 Junction Shopping Centre,Jimboomba,4208,-27.83064,153.02674
Keerbra Park State High School,Anne Street,Southport,4215,-27.984797,153.39967
Lockyer Valley Tourist Information Centre,Lake Apex Drive,Gatton,4343,-27.570008,152.27089
Lucky 7 Broadwater,5 Nind Street,Southport,4215,-27.963547,153.41328
Lucky 7 Circle,3184 Surfers Paradise Blvd,Surfers Paradise,4217,-28.001244,153.427
Lucky 7 Edward Street,"Shop 2, 160 Edward Street",Brisbane,4000,-27.469461,153.02786
Lucky 7 SPC Mini Mart ,56 Scarbrough Street,Southport,4215,-27.969998,153.41448
Lucky 7 View ,Shop 38G  3221 Surfers Paradise Blv,Surfers Paradise,4217,-27.998344,153.42915
MacGregor News,"Shop 14-15 Sunny Park Shopping Centre, 342 McCullough Street ",MacGregor,4169,-27.570937,153.06488
Macleay Island Post Office ,36 Southsea Terrace ,MacLeay Island ,4184,-27.629973,153.3647
Margate News & Casket,Shop 5/266 Oxley Ave,Margate,4019,-27.244782,153.10703
Matilda Broadbeach,75 T.E. Peter's Drive ,Broadbeach,4218,-28.026559,153.42063
Midway News & Casket,"Shop 2, 544 Oxley Avenue",Redcliffe,4020,-27.2173,153.112
Moorooka Foodstore & News ,419 Beadesert Road,Moorooka,4105,-27.542775,153.02037
Mountain View News,967 Logan Road,Holland Park,4121,-27.5197,153.061
Murrarrie Newsagency ,Shop 2 2 Queensport Road ,Murrarrie,4172,-27.464363,153.10455
Murrumba News & Giftware,"Shop 11, Murrumba Downs Shopping Centre",Murrumba Downs ,4503,-27.272322,153.0166
Narangba Valley News,"Shop 6, 212 Young Road",Narangba,4504,-27.173203,152.93689
Nerang Mall News ,17/7-29 Cauyuga Street ,Nerang,4211,-27.99986,153.33856
Newmarket Post Office,"Shop 123, 400 Newmarket Road",Newmarket,4051,-27.4371,153.007
Nambour News and Casket,"Centenary Square, Currie St",Nambour,4560,-26.6278,152.959
NewsXpress Alexandra Hills,"Shop 9, Alexandra Hills Shopping Centre",Alexandra Hills,4161,-27.5246,153.221
Newsxpress Coomera,"Shop 8, 133 Finnegan Way",Coomera,4209,-27.840536,153.32958
NewsXpress Gatton,6/6 Railway Street,Gatton,4343,-27.555952,152.27784
NewsXpress Inala ,56/156 Inala Ave,Inala,4077,-27.597998,152.97409
NewsXpress Noosa Heads,"Shop 18, 20 Hastings Street",Noosa Heads,4567,-26.386584,153.08913
Narangba Licensed Post Office,"Shop 15, 36 Main Street",Narangba,4504,-27.202446,152.95907
News Extra Capalaba ,"Shop 79 Capalaba Shopping Centre, 38-62 Moreton Bay Rd, ",Capalaba,4157,-27.524667,153.19533
NewsXpress Robina Town Centre Level 2,Shop 2018 Level 2 Robina Town Centre,Robina ,4230,-28.077289,153.3853
NewsXpress Stones Corner ,16/405 Logan Rd,Greenslopes,4120,-27.500295,153.04536
NewsXpress Inala ,"Shop 56, Inala Plaza, 156 Inala Avenue",Inala,4077,-27.597991,152.97411
NewsXpress North Lakes,Cnr Lakefield Drive and Endeavour Blvd,North Lakes,4509,-27.238382,153.01532
NewsXpress Southport Park,"Shop 20, Southport Park Shopping Centre, Ferry Road",Southport,4215,-27.985731,153.40987
Nextra Kenmore Village News,"Shop 50, Kenmore Village, Brookfield Road",Kenmore,4069,-27.506681,152.93931
Nextra Manly West,669 Manly Road ,Manly West ,4179,-27.474816,153.15589
Nextra Riverlink News,"Shop 64, Riverlink Shopping Centre Cnr Pine St & The Terrace",North Ipswich,4305,-27.608385,152.75984
Night Owl West End,"Shop 1, 158 Boundary St",West End,4101,-27.4814,153.012
Nobby Beach Newsagency,"Shop 1, 2239 Gold Coast Highway",Mermaid Beach,4218,-28.058344,153.4385
Noosa Village News,"Shop 12, Noosa Village Shopping Centre, Gibson Road",Noosaville,4566,-26.401074,153.06516
Norfolk News,"Norfolk Village Shopping Centre, 174-178 Pascoe Road",Ormeau,4208,-27.763313,153.24504
Northgate News,111 Ridge Street,Northgate,4013,-27.39026,153.06581
Night Owl Highgate Hill,"Shop 2, 34 B Gladstone Road",Highgate Hill,4101,-27.484561,153.01996
Oxley Licensed Post Office ,130 Oxley Station Road,Oxley,4075,-27.553399,152.97368
Pacific News & Casket,"4 Bulcock Street, Caloundra QLD",Caloundra,4551,-26.805191,153.13556
Palm Beach Newsagency,"Shop 5A, 10 Fifth Avenue",Palm Beach,4221,-28.122241,153.47234
Pitstop Friendly Grocer,Shop 2/31 Aubrey St,Surfers Paradise ,4217,-28.011211,153.42993
Quik Stop mini mart and news,2/1 Hospital Boulevard,Southport,4215,-27.959227,153.38234
Rosewood News,12 John Street,Rosewood,4340,-27.641864,152.59309
Round Table Coffee,Shop 3 67 Gawain Road,Bracken Ridge,4017,-27.315173,153.0327
Sherwood News & Casket Agency,"Shop 4, 686 Sherwood Road",Sherwood,4075,-27.532474,152.98101
SPAR Express Marsden,Shop 7 Cnr McCarthy & Third Ave ,Marsden,4132,-27.244051,152.98342
St Lucia Supermarket,185  Sir Fred Schonell Drive,St Lucia,4067,-27.494754,153.00264
Supanews Bracken Ridge ,Bracken Ridge Plaza Shopping Centre,Bracken Ridge,4017,-27.330062,153.02673
Surfside Newsagency,10 North Street Woorim,Bribie Island,4507,-27.068292,153.2034
Tarragindi LPO and News,100 Windmill Street ,Tarragindi,4121,-27.53057,153.04217
Terrace News,"Morris Towers, 149 Wickham Terrace ",Spring Hill,4004,-27.464527,153.0252
The Co-op Bookshop GU Mt Gravatt,Messines Ridge Rd,Mt Gravatt,4122,-27.552706,153.05425
The Lucky Charm Everton Park,97 Flockton Street ,Everton Park,4053,-27.394177,152.99673
The Lucky Charm Holmview,"Shop 15, 19 Main St",Samford Village ,4520,-27.711046,153.16148
The Lucky Charm Noosaville ,28 Eenie Creek Road ,Noosaville,4566,-26.41543,153.04828
The Pines News & Gifts ,"Shop 29 The Pines Shopping Centre, Guineas Creek Road",Elanora,4221,-28.134511,153.46857
The Uni Store (Gold Coast),G07 The Link Griffith University Gold Coast ,Southport,4215,-27.961855,153.38044
Ticketmates Australia ,34/46 Cavill Ave ,Surfers Paradise ,4217,-28.002152,153.42707
Tickets and Tours Online Portal Broadbeach,C/O Ultiqa Suite 4 Level 2 Oasis Shopping Centre Broadbeach ,Broadbeach,4218,-28.0291,153.43138
TSG Burpengary ,173 Station Road,Burpengary,4505,-27.154076,152.97417
Tweed Heads Info Centre,Cnr Wharf & Bay Street,Tweed Heads,2485,-28.170883,153.54366
Walton Bridge News,"Shop 10, 974 Waterworks Road ",The Gap,4061,-27.445401,152.95315
Warana News ,Cnr Nicklin Way and Minkara Street ,Warana,4575,-26.725069,153.12963
Waterford Plaza News,"Waterford Plaza, corner Kingston and Taigum Roads ",Waterford,4113,-27.692834,153.13529
Wellington Point News,"Shop 2, 368 Main Road",Wellington Point,4160,-27.48543,153.23781
Wellington Point Post Office,"Shop 3, 405 Main Road",Wellington Point,4160,-27.48691,153.23915
West Stafford News ,611 Stafford Road,Stafford ,4053,-27.407517,152.99995
Westside Story Newsagency,85 Boundary Street,West End,4101,-27.477442,153.01259
Wilston News & Post,"Shop 1, 99 Kedron Brook Road",Wilston,4051,-27.432244,153.01994
Winston Glades News,Shop 9 Ash Street,Yamanto,4305,-27.65296,152.76486
Woody Point News ,60A King Street ,Woody Point,4019,-27.250149,153.10333
Wynnum North Newsagency,"Shop 1, 150 Selina Road ",Wynnum North,4178,-27.43694,153.15871
Ezymart 3 Cavill Ave,3 Cavill Ave ,Surfers Paradise ,4217,-28.002125,153.43073
Ezymart 3320,3220 Surfers Paradise Blvd,Surfers Paradise ,4217,-28.000436,153.42799
Ezymart Orchid Ave,"Shop 7A, 15 Cavill Ave",Surfers Paradise ,4217,-28.001784,153.42977
7-Eleven 189 George St,"189 George Street, Brisbane CBD",Brisbane,4000,-27.4714,153.024
7-Eleven 331-333 George St Brisbane,331 - 333 George Street,Brisbane,4000,-27.4687,153.022
7-Eleven 4100 Brunswick St,376 Brunswick Street,Fortitude Valley,4006,-27.458803,153.03573
"7-Eleven 47-59 Adelaide St, Br",47 - 59 Adelaide Street,Brisbane,4000,-27.469628,153.02374
7-Eleven 82 Pineland Rd,82 Pinelands Road,Sunnybank,4109,-27.591554,153.0604
7-Eleven 97 Albert Street,97 Albert Street,Brisbane,4000,-27.471499,153.02739
7-Eleven Acacia Ridge East ,139 Beenleigh Road,Acacia Ridge ,4110,-27.575535,153.0395
7-Eleven Adelaide St West,174 Adelaide Street,Brisbane,4000,-27.467482,153.02594
7-Eleven Albany Creek,"70 Albany Creek Road, Aspley",Albany Creek,4035,-27.363739,153.01293
7-Eleven Algester,169 Algester Road,Algester,4115,-27.612578,153.03947
7-Eleven Anzac Ave Redcliffe,77 Anzac Avenue,Redcliffe,4020,-27.23044,153.10921
7-Eleven Ascot ,94 Kitchener Road,Ascot,4007,-27.428403,153.06215
7-Eleven Ashgrove,268 Waterworks Road,Ashgrove,4060,-27.446136,152.991
7-Eleven Ashmore,400 Nerang Road,Ashmore,4214,-27.978812,153.3796
7-Eleven Ashmore,579 Ashmore Roads,Ashmore,4214,-27.984707,153.36561
7-Eleven Aspley,1429 Gympie Road (Corner Brickfield Road),Aspley,4034,-27.357908,153.01702
7-Eleven Aspley,581 Robinson Road West,Aspley,4034,-27.364937,153.02619
7-Eleven Aurora,420 Queen Street (Corner Wharf Street),Brisbane,4000,-27.469219,153.02501
7-Eleven Beenleigh City Rd,"2 - 6 City Road, Beenleigh",Beenleigh,4207,-27.707833,153.20359
7-Eleven Beenleigh East,79 Logan River Road,East Beenleigh,4207,-27.713411,153.18508
7-Eleven Bellbird Park,354 Redbank Plains Road,Bellbird Park,4300,-27.645223,152.87222
7-Eleven Birkdale,Corner Bailey & Birkdale Roads,Birkdale,4159,-27.50912,153.20701
7-Eleven Boronia Heights,Corner Coronation & Middle Roads,Boronia Heights,4124,-27.678743,153.02184
7-Eleven Bracken Ridge,Corner Telegraph Road & Norris Road,Bracken Ridge,4017,-27.3307,153.026
7-Eleven Brassall,21 Hunter Street,Brassall,4305,-27.593575,152.7458
7-Eleven Bray Park ,339-341 Samonvale Road ,Bray Park ,4500,-27.2915,152.953
7-Eleven Brisbane East,508 Vulture Street (Corner Wellington Road),Brisbane East,4169,-27.48494,153.03996
7-Eleven Brisbane George St,231 George Street,Brisbane,4000,-27.470621,153.02346
7-Eleven Broadbeach Waters,34 Hooker Drive,Broadbeach Waters,4218,-28.036572,153.42784
7-Eleven Browns Plains,267-273 Browns Plains Road,Browns Plains,4118,-27.664117,153.06143
7-Eleven Browns Plains,264-266 Browns Plains Road,Brown Plains ,4118,-27.663846,153.06354
7-Eleven Brunswick Street Mall,281 Brunswick Street Mall,Fortitude Valley,4006,-27.457771,153.03384
7-Eleven Burleigh Heads,Fifth Avenue & 1957 Gold Coast Highway,Burleigh Heads,4220,-28.078412,153.44631
7-Eleven Burleigh Heads,"Burleigh Heads Central, 11 Connor Street",Burleigh Heads,4220,-28.089041,153.45162
7-Eleven Caboolture North ,166 Pumicestone Road,Caboolture,4510,-27.060447,152.95726
7-Eleven Carina,1505 Creek Road,Carina,4152,-27.487631,153.10027
7-Eleven Carrara North ,1 Chisholm Road,Carrara South ,4211,-28.001113,153.35829
7-Eleven Carrara South ,Corner Neilsens Road & Coelia Court ,Carrara South ,4211,-28.015844,153.35149
7-Eleven Cleveland,41 Shore Street ,Cleveland,4163,-27.524381,153.25614
7-Eleven Clontarf,9 Elizabeth Street,Clontarf,4019,-27.260726,153.07967
7-Eleven Compton Rd,Corner Compton Road & Gowan Road,Sunnybank Hills,4116,-27.611463,153.06202
7-Eleven Coolangatta,"Shop B, 18 Griffiths Street",Coolangatta,4225,-28.168428,153.53652
7-Eleven Coolangatta South,"Shop 19/Tower 2, Reflection on the Sea, Marine Pde",Coolangatta,4225,-28.16803,153.54263
7-Eleven Coomera,Corner Pacific Highway & Dreamworld Parkway,Coomera,4209,-27.921899,153.32461
7-Eleven Coopers Plains,129 Orange Grove Road,Coopers Plains,4108,-27.563911,153.03977
7-Eleven Creek St,99 Creek Street,Brisbane,4000,-27.46627,153.02805
7-Eleven Dakabin,205 Old Gympie Road (Cnr Whitehorse Road),Dakabin,4503,-27.232063,152.99247
7-Eleven Darling Heights,434 Stenner Street,Darling Heights,4350,-27.591913,151.93753
7-Eleven Deagon,"11 Depot Road, Deagon, Brisbane North",Deagon,4017,-27.328306,153.053865
7-Eleven Deception Bay ,1 - 9 Baylink Ave,Deception Bay,4508,-27.19684,153.01552
7-Eleven Dinmore,"29-31 Brisbane Road, Dinmore, Western",Dinmore,4303,-27.598033,152.83201
7-Eleven Durack,"14 Rosemary Street, Durack, Brisbane South",Durack,4077,-27.579235,152.97457
7-Eleven Eagleby,126 Riverhills Road,Eagleby,4207,-27.701772,153.21126
7-Eleven Eatons Hill,"2-4 Bunya Park Drive, Eatons Hill, Queensland, Australia",Eatons Hill,4037,-27.337817,152.96021
7-Eleven Edward St,120 Edward Street,Brisbane,4000,-27.470265,153.0286
7-Eleven Fairfield Gardens,"180 Fairfield Road, Fairfield Gardens, Brisbane South",Fairfield Gardens,4103,-27.508318,153.02496
7-Eleven Flinders View,131 Ash Street (Corner Astral Court),Yamanto,4305,-27.653552,152.76319
7-Eleven Gaven,Lot 2/ 1 Binstead Way,Gaven,4211,-27.926022,153.32367
7-Eleven Graceville,246 Oxley Avenue,Graceville,4075,-27.522059,152.9801
7-Eleven Grange,100 Days Road,Grange,4051,-27.426898,153.01865
7-Eleven Greenbank,257-261 Teviot Road,Greenbank,4124,-27.738408,152.98406
7-Eleven Greenslopes,99 Juliette Street,Greenslopes,4120,-27.504502,153.04049
7-Eleven Gumdale ,689 New Cleveland Road,Gumdale ,4154,-27.491261,153.15299
7-Eleven Hamilton,456 Kingsford Smith Drive & Corner Racecourse Road,Hamilton,4007,-27.439017,153.06452
7-Eleven Harristown,Cnr Drayton & South Streets ,Harristown,4350,-27.576023,151.93932
7-Eleven Heathwood ,15 Stapylton Road ,Heathwood,4110,-27.630745,152.98695
7-Eleven Heritage Park,118 Waller Road,Heritage Park,4118,-27.673431,153.05291
7-Eleven Highfields,1 Cawdor Road,Highfields,4352,-27.474189,151.93999
7-Eleven Holmview ,324-326 Logan River Road,Holmview,4207,-27.710113,153.16038
7-Eleven Hope Island,341 Hope Island Road,Hope Island,4212,-27.880497,153.33416
7-Eleven Jindalee,721 Seventeen Mile Rocks Road,Jindalee,4074,-27.536268,152.94892
7-Eleven Kedron,Corner Nundah Street & Gympie Road,Kedron,4032,-27.401221,153.03185
7-Eleven Kenmore,"Shop 1, 2058-2062 Moggill Road",Kenmore,4069,-27.509927,152.93833
7-Eleven Kensington Hills,1 Sovereign Avenue,Bray Park,4500,-27.297022,152.97506
7-Eleven Kingston,325 - 333 Kingston Road,Woodridge,4114,-27.644834,153.11809
7-Eleven Kingston,Corner 1 Juers Street & Kingston Road,Kingston,4114,-27.660196,153.11775
7-Eleven Kirra,"Shop 15 Kirra Beach Plaza, Cnr Musgrave & Douglas",Coolangatta,4225,-28.168058,153.52811
7-Eleven Labrador,78 - 84 Frank Street,Labrador,4215,-27.948864,153.40829
7-Eleven Landmark Resort,"Shop 4, Landmark Resort, The Esplanade",Mooloolaba,4557,-26.680889,153.12054
7-Eleven Little Mountain,55 Caloundra Road,Little Mountain,4551,-26.794451,153.10595
7-Eleven Logan City,120 Wembley Road,Logan City,4114,-27.641311,153.10746
7-Eleven Loganlea,47-49 Loganlea Road ,Loganlea ,4131,-27.686885,153.13746
7-Eleven Lutwyche,446 Lutwyche Road,Lutwyche,4030,-27.424761,153.03303
7-Eleven Lytton,"887 Lytton Road, Murarrie, Queensland, Australia",Murrarrie,4172,-27.456795,153.10572
7-Eleven Mackenzie,902 Mt Gravatt-Capalaba Road,Mackenzie,4156,-27.545536,153.1218
7-Eleven Main Beach,3568 Main Beach Parade,Main Beach,4217,-27.979746,153.42884
7-Eleven Manly West,459 Manly Road,Manly West,4179,-27.475531,153.16581
7-Eleven Marcoola,946-948 David Low Way,Marcoola,4564,-26.600629,153.09565
7-Eleven Maroochydore Nth,53 Aerodrome Road,Maroochydore North,4558,-26.660017,153.10037
7-Eleven Marsden,79 - 85 Chambers Flat Road (Corner Tamarind St),Marsden,4132,-27.680592,153.11474
7-Eleven Maudsland,141 Maudsland Road,Oxenford,4210,-27.91318,153.28314
7-Eleven Meridan Plains,236 Parklands Boulevard,Meridan Plains,4551,-26.774138,153.10569
7-Eleven Mermaid Waters,1 Lakeview Boulevard,Mermaid Waters,4218,-28.040252,153.40823
7-Eleven Mimi Corner,"Shop 8, 136 Queen Street",Brisbane,4000,-27.469266,153.02515
7-Eleven Mooloolaba Beach,Shop 1 85 The Esplanade,Mooloolaba,4557,-26.679043,153.11869
7-Eleven Moorvale,841 Ipswich Road (Corner Black Street),Moorooka,4105,-27.523986,153.02348
7-Eleven Morayfield,272 Morayfield Road,Morayfield,4506,-27.11235,152.95066
7-Eleven Mt Gravatt East,318 Creek Road (Corner Cavendish Road),Mount Gravatt East,4122,-27.531667,153.09339
7-Eleven Murrumba Downs,9 Blyth Road,Murrumba Downs,4503,-27.273192,153.01513
7-Eleven Nambour,922 Connection Road,Nambour,4560,-26.616428,152.96939
7-Eleven Nerang,70 Beaudesert - Nerang Road,Nerang,4211,-27.993249,153.33314
7-Eleven Newmarket,85 Enoggera Road,Newmarket,4051,-27.438515,153.00764
7-Eleven Newtown,251-253 Bridge Street ,Newtown,4350,-27.062195,153.07954
7-Eleven Ningi,1102 Bribie Island Road,Ningi,4511,-27.062214,153.07956
7-Eleven Noosa,91 -97 Noosa Drive,Noosa,4567,-26.39692,153.08839
7-Eleven Noosa Heads,Shop 4 50 Hastings Street,Noosa,4567,-26.387307,153.09162
7-Eleven North Ipswich,36 Downs Street,North Ipswich,4305,-27.603023,152.76159
7-Eleven North Lakes,Flinders Pde (Cr Nth-Sth Arterial Rd & Bounty Bld),North Lakes,4507,-27.220434,152.99972
7-Eleven North Lakes Central ,43 Stapylton Street,North Lakes,4509,-27.220434,152.99972
7-Eleven Ormeau,7 Eggersdorf Road,Ormeau,4208,-27.78611,153.25814
7-Eleven Oxenford,170 Old Pacific Highway,Oxenford,4210,-27.886074,153.31356
7-Eleven Pacific Pines,31 Pitcairn Way,Pacific Pines,4211,-27.946272,153.32124
7-Eleven Palm Beach,1186 Gold Coast Highway (Corner Eighth Avenue),Palm Beach,4221,-28.118114,153.47051
7-Eleven Palm Beach Nth,1346 - 1354 Gold Coast Highway,Palm Beach North,4221,-28.109766,153.46617
7-Eleven Paradise Centre,"Shop 13, The Paradise Centre, Cavill Avenue.",Surfers Paradise,4217,-28.002653,153.42993
7-Eleven Parkwood,236 Napper Road,Parkwood,4214,-27.946995,153.35101
7-Eleven Pegasus,"Shop 10, 2669-2679 Gold Coast Highway",Broadbeach,4218,-28.031868,153.43073
7-Eleven Pimpama,162 Gainsborough Drive ,Pimpama,4209,-27.824335,153.32259
7-Eleven Raceview,59-63 Raceview Street,Raceview,4305,-27.634608,152.7745
7-Eleven Rangeville,85 Perth Street,Rangeville,4350,-27.574684,151.96923
7-Eleven Red Hill,152 Musgrave Road,Red Hill,4059,-27.455465,153.00674
7-Eleven Redbank Plains,355 Redbank Plains Road,Redbank Plains,4301,-27.644851,152.87142
7-Eleven Richlands,208 Progress Road,Richlands,4077,-27.597943,152.94978
7-Eleven River Hills,244 Sumners Road (Corner Wacol Station Road),Riverhills,4074,-27.561747,152.92273
7-Eleven Robina,48-56 Commerce Drive (Lot 5 Ron Penhalagon Way),Robina,4226,-28.065493,153.40391
7-Eleven Robina,253 Scottsdale Drive,Robina,4226,-28.090217,153.39057
7-Eleven Robina Town Centre,Robina Town Centre Drive (Corner Robina Parkway),Robina,4226,-28.080583,153.38412
7-Eleven Runaway Bay,20 Bayview Street,Runaway Bay,4216,-27.923576,153.40376
7-Eleven Salisbury,642 Toohey Road ,Salisbury,4107,-27.544343,153.03975
7-Eleven Sanctuary Cove,"Shop 1, 87-91 Broadwater Avenue",Hope Island,4212,-27.877719,153.36691
7-Eleven Sandgate,86 Rainbow Street (Corner Hancock Street),Sandgate,4017,-27.321142,153.06811
7-Eleven Silkstone,Corner Blackstone & South Station Roads,Silkstone,4304,-27.621188,152.78802
7-Eleven Southbank Tafe,5/97 Merivale Street,South Brisbane,4101,-27.479961,153.02011
7-Eleven Southport,138 Slatyer Avenue,Southport,4215,-27.996423,153.39974
7-Eleven Spring Hill,170 Leichhardt Street,Spring Hill,4000,-27.461774,153.02611
7-Eleven Springwood,Cnr Springwood Road & Cinderella Drive,Springwood,4127,-27.610358,153.12426
7-Eleven Strathpine,273 Gympie Road,Strathpine,4500,-27.307676,152.99033
7-Eleven Sunnybank,"Shop 6X, Market Sq, Cnr Mains Rd & McCullough St",Sunnybank,4109,-27.572571,153.06531
7-Eleven Surfers Paradise ,100 Ferny Avenue ,Surfers Paradise ,4217,-27.995601,153.4274
7-Eleven Taigum,377 Handford Road,Taigum,4018,-27.342338,153.0418
7-Eleven The Gap,1121 Waterworks Road (Corner Settlement Road),The Gap,4061,-27.442958,152.94376
7-Eleven Tingalpa,1280 Wynnum Road ,Tingalpa,4173,-27.471677,153.11046
7-Eleven Toowong,"Shop 2, 50 Sherwood Road",Toowong,4066,-27.485504,152.99087
7-Eleven Toowoomba,328 - 330 James Street,Toowoomba,4350,-27.550622,151.95482
7-Eleven Toowoomba East,221A-225 Ruthven Street,Toowoomba East,4350,-27.550622,151.95482
7-Eleven Transit Centre,458 George Street,Brisbane,4000,-27.467358,153.01989
7-Eleven Tweed Heads Sth,Home Mart Centre Lot1 Minjungbal Drive,Tweed Heads South,2486,-28.207116,153.54544
7-Eleven Upper Coomera ,1 Brygon Creek Drive (Corner Reserve Road),Upper Coomera,4210,-27.86864,153.29631
7-Eleven Valley Metro,18-20/ 230 Brunswick Street,Fortitude Valley,4006,-27.456751,153.03311
7-Eleven Victoria Point,439-447 Cleveland-Redland Bay Road,Victoria Point,4165,-27.584362,153.28121
7-Eleven Virginia ,2009 Sandgate Road ,Virginia ,4014,-27.371217,153.06254
7-Eleven Vulture Street,82 Vulture Street,West End,4101,-27.480817,153.01194
7-Eleven Warana,Corner Nicklin Way & Aquatic Drive,Warana,4575,-26.719353,153.12931
7-Eleven Warner,901 Morene Crescent (Corner Old North Road),Warner Lakes,4500,-27.310392,152.96278
7-Eleven West End,6/94 Boundary Road,West End,4101,-27.478546,153.01269
7-Eleven Willawong,217 Sherbrooke Road,Willawong,4110,-27.593942,153.0043
7-Eleven Windaroo,159-163 Beenleigh-Beaudesert Road,Windaroo,4207,-27.735622,153.194
7-Eleven Wishart,Corner Mt Gravatt-Capalaba & Newnham Roads,Wishart,4122,-27.556401,153.08973
7-Eleven Woodridge,Corner Compton Road & Kingston Road,Woodridge,4114,-27.618917,153.105
7-Eleven Worongary,2 Elysium Road,Worongary,4213,-28.032786,153.35298
7-Eleven Wurtulla,1 Piringa Street (Corner Nicklin Way),Wurtulla,4575,-26.758739,153.12509
7-Eleven Wynnum,Corner Edith & Tingal Roads,Wynnum,4178,-27.445945,153.17183
7-Eleven Yeronga,563 Fairfield Road,Yeronga,4104,-27.51934,153.01525
7-Eleven Zillmere,"Shop 3, Corner Zillmere & Handford Roads",Zillmere,4034,-27.359256,153.03877
Nightowl Adelaide Street ,65 Adelaide Street,Brisbane,4000,-27.469348,153.0241
Nightowl Albert Street,132 Albert Street,Brisbane,4000,-27.470989,153.0264
Nightowl George Street,"Shop 3, Ground Floor, 400 George Street",Brisbane,4000,-27.468478,153.02084
Nightowl Mary Street,73 Mary Street,Brisbane,4000,-27.470989,153.0264
Nightowl New Farm,660 Brunswick Street,New Farm,4005,-27.463292,153.04148
Nightowl Fort Valley Brunswick,301 Brunswick Street,Fortitude Valley,4006,-27.463292,153.04148
Nightowl Fort Valley Wickham,"Shop 1, Chopstix Arcade, 210 Wickham Street",Fortitude Valley,4006,-27.45775,153.03327
Nightowl Woolloongabba,80 Ipswich Road,Woolloongabba,4102,-27.491101,153.03554
Nightowl Kangaroo Point,188 Main Street,Kangaroo Point,4169,-27.468519,153.03551
Nightowl Highgate Hill,34B Gladstone Road,Highgate Hil,4101,-27.48456,153.01997
Nightowl West End,158 Boundary Street,West End,4101,-27.481516,153.01208
Nightowl Clayfield,722 - 730 Sandgate Road,Clayfield,4011,-27.418209,153.05542
Nightowl Virginia,15 Toombul Road,Virginia,4014,-27.383323,153.06397
Nightowl North Lakes,North Lakes Shopping Centre,Mango Hill,4509,-27.231896,153.02243
Nightowl Boondall,1968 Sandgate Road,Boondall,4034,-27.363837,153.06226
Nightowl Windsor,142 Newmarket Road,Windsor,4030,-27.437534,153.024
Nightowl Chermside,634 Gympie Road,Chermside,4032,-27.391131,153.03093
Nightowl Ashgrove BP,161 Waterworks Road,Ashgrove,4060,-27.449464,152.97818
Nightowl Ashgrove West,486 Waterworks Road,Ashgrove,4060,-27.449464,152.97818
Nightowl Albany Creek,Albany Creek Marketplace,Albany Creek,4035,-27.346151,152.96762
Nightowl Enoggera,Cnr Audrey & Wardell Streets,Enoggera,4051,-27.423522,152.99008
Nightowl Milton,22-36 Railway Terrace,Milton,4064,-27.468478,153.02084
Nightowl Indooroopilly,34 Coonan Street,Indooroopilly,4068,-27.496536,152.97602
Nightowl Taringa,Cnr Gailey & Swann Streets,Taringa,4068,-27.497172,152.98978
Nightowl Yeronga,419-427 Fairfield Road,Yeronga,4104,-27.516314,153.01691
Nightowl Stones Corner, 476 Logan Road,Stones Corner,4120,-27.503263,153.04762
Nightowl Tarragindi,9 Gapap Street,Tarragindi,4121,-27.533458,153.04514
Nightowl Upper Mt Gravatt,Cnr Archer & Logan Roads,Upper Mount Gravatt,4122,-27.555054,153.08074
Nightowl Carindale,The Cosmopolitan Centre,Carindale,4152,-27.518309,153.09665
Nightowl Cannon Hill,965 Wynnum Road,Cannon Hill,4170,-27.469004,153.09029
Nightowl Southport,201 Ferry Road,Southport,4215,-27.989553,153.41219
Nightowl Surfers Paradise,3031 Gold Coast Highway,Surfers Paradise,4217,-28.005223,153.42907
Nightowl Mermaid Beach,2375 Gold Coast Highway,Mermaid Beach,4218,-28.050397,153.43657
Nightowl Palm Beach,1156-1160 Gold Coast Highway,Palm Beach,4221,-28.119552,153.47157
Nightowl Burleigh Waters,Cnr Bermuda Street & Christine Ave,Robina,4226,-28.050397,153.43657
Nightowl Calamavale,Calamvale Village Shopping Centre,Calamvale,4116,-27.62405,153.04914
Nightowl Springfield Lakes,1 Springfield Lakes Boulevard,Springfield Lakes,4300,-27.669333,152.91622
Nightowl Fernbrooke,Cnr Alawoona Street & School Road,Redbank Plains,4301,-27.656169,152.85046
Nightowl Forest Lake,251 Forest Lake Boulevard,Forest Lake,4078,-27.625686,152.96989
Nightowl Caloundra,50 Bulcock St & Minchinton Avenue,Caloundra,4551,-26.804896,153.13195
Nightowl Little Mountain,11 Birrobeen Street,Little Mountain,4551,-26.773768,153.09944
Nightowl Mooloolaba,Cnr Brisbane Road & Tarcoola Avenue,Mooloolaba,4553,-26.683453,153.11719
Albion station,49 Albion Road,Albion,4010,-27.429409,153.04002
Alderley station,Railway Place,Alderley,4051,-27.423433,153.00099
Altandi station,125 Mains Road,Sunnybank,4109,-27.582671,153.06338
Ascot station,McGill Avenue,Ascot,4007,-27.429214,153.06324
Auchenflower station,Auchenflower Terrace,Auchenflower ,4066,-27.476547,152.99673
Bald Hills station,Cullimore Street,Bald Hills,4036,-27.321372,153.01164
Banoon station,82 Breton Street,Sunnybank,4109,-27.576024,153.04616
Banyo station,268 St Vincents Road,Banyo,4014,-27.374986,153.07728
Beenleigh station,Alamein Street,Beenleigh,4207,-27.717648,153.2047
Beerburrum station,Church Street,Beerburrum,4517,-26.959809,152.95826
Beerwah station,Beerwah Parade,Beerwah,4519,-26.857087,152.959
Bethania station,Station Road,Bethania,4205,-27.68826,153.15849
Bindha station,Park Street,Banyo,4014,-27.382901,153.07245
Birkdale station,Napier Street,Birkdale,4159,-27.49355,153.21881
Boondall station,Aberdeen Parade,Boondall,4034,-27.346405,153.06762
Booval station,South Station Road,Booval,4304,-27.609315,152.78987
Bowen Hills station,Abbotsford Road,Bowen Hills,4006,-27.445181,153.03756
Bray Park station,Railway Avenue,Bray Park,4500,-27.299432,152.98565
Bundamba station,Mining Street,Bundamba,4304,-27.607472,152.80436
Buranda station,Gillingham Street,Buranda,4102,-27.496571,153.0404
Burpengary station,Burpengary Road,Burpengary,4505,-27.162141,152.9578
Caboolture station,Matthew Terrace,Caboolture,4510,-27.082577,152.95335
Cannon Hill station,60 Barracks Road,Cannon Hill,4170,-27.465376,153.0881
Carseldine station,Beams Road,Carseldine,4034,-27.348448,153.02916
Central station,Ann Street,Brisbane,4000,-27.465905,153.02594
Chelmer station,140 Honour Avenue,Chelmer,4068,-27.511648,152.97288
Clayfield station,761 Sandgate Road,Clayfield,4011,-27.417539,153.05698
Cleveland station,Shore Street,Cleveland,4163,-27.524596,153.26632
Coomera station,Railway Reserve 11 Foxwell Road,Coomera,4209,-27.852349,153.31705
Coopers Plains station,Henley Street,Coopers Plains,4108,-27.567386,153.03591
Cooran,King street,Cooran,4569,-26.334067,152.82279
Cooroy  station,Elm Street,Cooroy,4563,-26.418103,152.91116
Coorparoo station,Cavendish Road,Coorparoo,4151,-27.489671,153.05525
Corinda station,"Watt Street, corner Ruthven Street",Corinda,4075,-27.538998,152.98011
Dakabin station,Narangba Road,Dakabin,4503,-27.230415,152.97569
Darra station,Darra Station Road,Darra,4076,-27.56584,152.95275
Deagon station,Adams Street,Deagon,4017,-27.327292,153.06349
Dinmore station,Mason Street,Dinmore,4303,-27.596265,152.83364
Domestic Terminal station,Airport Drive,Airport (Brisbane),4008,-27.385081,153.11895
Doomben station,Lamington Avenue,Doomben,4007,-27.431296,153.07385
Dutton Park station,Railway Terrace,Dutton Park,4102,-27.499498,153.02926
Eagle Junction station,Junction Road,Eagle Junction,4011,-27.41542,153.04921
East Ipswich station,Merton Street,East Ipswich,4305,-27.610031,152.77525
Ebbw Vale station,Brisbane Road,Ebbw Vale,4304,-27.603225,152.82231
Edens Landing station,Eddy Avenue,Edens Landing,4207,-27.698198,153.17062
Elimbah station,English Street,Elimbah,4516,-27.011379,152.94519
Enoggera station,Glenalva Terrace,Enoggera,4051,-27.420252,152.99218
Eudlo station,Rosebed Street,Eudlo,4554,-26.725427,152.95736
Eumundi,Memorial Drive,Eumundi,4562,-26.48098,152.95503
Exhibition,O'Connel Terrace,Exhibition,4029,-27.449147,153.03235
Fairfield Station ,Mildmay Street,Fairfield,4103,-27.507597,153.02834
Ferny Grove station,Conavalla Street,Ferny Grove,4055,-27.401548,152.93541
Fortitude Valley station,Brunswick Street,Fortitude Valley,4006,-27.456449,153.03329
Fruitgrove station,Beenleigh Road,Runcorn,4113,-27.598621,153.08066
Gailes station,Wilruna Street,Gailes,4300,-27.602358,152.91901
Gaythorne station,30 Station Avenue,Enoggera,4051,-27.418927,152.98456
Geebung station,Railway Parade,Geebung,4034,-27.368621,153.04704
Glass House Mountains station,Reed Street,Glasshouse Mountains,4518,-26.898873,152.95692
Goodna station,Ryan Street,Goodna,4300,-27.608814,152.902
Graceville station,Honour Avenue,Graceville,4075,-27.520337,152.97576
Grovely station,Blaker Road,Grovely,4054,-27.405326,152.96193
Gympie North station,Sandy Creek Road,Gympie North,4570,-26.15946,152.68282
Helensvale station,Town Centre Drive,Helensvale,4212,-27.925357,153.33867
Hemmant station,38 Hemmant-Tingalpa Road,Hemmant,4174,-27.447422,153.12709
Hendra station,Chermside Street,Hendra,4011,-27.42238,153.06271
Holmview station,Spanns Road,Beenleigh,4207,-27.709535,153.18741
Indooroopilly station,Railway Avenue,Indooroopilly,4068,-27.503262,152.97557
International Terminal station,Airport Drive,Airport (Brisbane),4008,-27.402961,153.10888
Ipswich station,Bell Street,Ipswich,4305,-27.612926,152.76019
Kallangur Station,Duffield Road ,Kallangur ,4503,-27.256677,152.99965
Karrabin station,Karrabin-Rosewood Road,Karrabin,4306,-27.60456,152.70948
Keperra station,Silvertop Street,Keperra,4054,-27.409703,152.95712
Kingston station,Milky Way Street,Kingston,4114,-27.657364,153.1182
Kippa Ring,Klingner Road,Kippa Ring ,4021,-27.224694,153.08343
Kuraby station,1370 Beenleigh Road,Kuraby,4112,-27.604821,153.09127
Landsborough station,Cribb Street,Landsborough,4550,-26.808058,152.96613
Lawnton station,Station Road,Lawnton,4501,-27.282527,152.9807
Lindum station,Sibley Road,Lindum,4178,-27.442305,153.14522
Loganlea station,Station Road,Loganlea ,4131,-27.670889,153.13836
Lota station,Railway Terrace,Lota,4179,-27.469784,153.18804
Mango Hill ,Halpine Drvice ,Mango Hill ,4509,-27.245999,153.02717
Mango Hill East ,Capestone Blvd,Mango Hill ,4509,-27.232782,153.03594
Manly station,Ernest Street,Manly,4179,-27.457898,153.18016
Milton station,Milton Road,Milton,4064,-27.468944,153.00496
Mitchelton station,McConaghy Street,Mitchelton,4053,-27.411856,152.97606
Mooloolah station, Mooloolah Connection Road,Mooloolah Valley,4553,-26.765899,152.96322
Moorooka station,1151 Ipswich Road,Moorooka,4105,-27.535839,153.01422
Morayfield station,Visentin Road,Morayfield,4506,-27.110022,152.95308
Morningside station,Waminda Street,Morningside,4170,-27.470604,153.06968
Murarrie station,Murrarie Road,Murrarrie,4172,-27.464744,153.10515
Murrumba Downs Station,Masjakin Court ,Murrumba Downs ,4503,-27.249786,153.0096
Nambour station,Civic Way,Nambour,4560,-26.625324,152.95811
Narangba station,448 Burpengary Road,Narangba,4504,-27.202124,152.95903
Nerang station,Warrener Street,Nerang,4211,-27.994502,153.35031
Newmarket station,Abuklea Street,Newmarket,4051,-27.433127,153.01014
Norman Park station,Waite Street,Norman Park,4170,-27.481562,153.06251
North Boondall station,Aberdeen Street North,Boondall,4034,-27.338733,153.06071
Northgate station,"Ryan Street, corner Holland Street",Northgate,4013,-27.393227,153.06922
Nudgee station,Railway Street,Nudgee,4034,-27.365883,153.08357
Nundah station,Station Street,Nundah,4012,-27.400903,153.06178
Ormeau station,200 Mirambeena Drive,Pimpama,4209,-27.799329,153.28263
Ormiston station,Wellington Street,Ormiston,4160,-27.514129,153.25584
Oxford Park station,Scanlan Road,Mitchelton,4053,-27.404331,152.96867
Oxley station,Ardoyne Road,Oxley,4075,-27.551991,152.9739
Palmwoods station,Chevallum Road,Palmwoods,4555,-26.688599,152.96128
Park Road station,Quarry Street,Woolloongabba,4102,-27.493542,153.03033
Petrie station,Station Street,Petrie,4502,-27.268137,152.98157
Pomona,Station Street,Pomona,4568,-26.365699,152.85613
Redbank station,corner Brisbane Terrace and Weedman Street,Redbank,4301,-27.599794,152.87218
Richlands Station,Progress Road,Richlands,4077,-27.596442,152.94656
Riverview station,Moggill Ferry Road,Riverview,4303,-27.595019,152.85072
Robina station,Bayberry Lane,Robina,4226,-28.071368,153.37798
Rocklea station,Brooke Street,Rocklea,4106,-27.544445,153.01389
Roma Street station,Roma Street,Brisbane,4000,-27.465494,153.01969
Rosewood station,Railway Street,Brisbane,4000,-27.643112,152.59286
Rothwell Station,Finnegan Street ,Brisbane,4000,-27.223435,153.04834
Runcorn station,800 Beenleigh Road,Runcorn,4113,-27.592699,153.06891
Salisbury station,Olivia Avenue,Salisbury,4107,-27.553748,153.02255
Sandgate station,Rainbow Street,Sandgate,4017,-27.322136,153.0686
Sherwood station,Honour Avenue,Sherwood,4075,-27.531581,152.97954
Shorncliffe station,Railway Parade,Shorncliffe,4017,-27.327443,153.08151
South Bank station,Grey Street,South Brisbane,4101,-27.481661,153.02285
South Brisbane station,Grey Street,South Brisbane,4101,-27.474857,153.01827
Springfield Central Station,Trackstar Avenue,Springfield Central,4300,-27.67425,152.90293
Springfield Station,New Smith Drive,Springfield,4300,-27.659734,152.92188
Strathpine station,Station Street,Strathpine,4500,-27.311754,152.99002
Sunnybank station,Dixon Street,Sunnybank,4109,-27.580817,153.05416
Sunshine station,357 Bilsen Road,Virgina,4014,-27.375695,153.05624
Taringa station,1 Princess Street,Taringa,4068,-27.493238,152.98118
Thagoona station,Thagoona-Rosewood Road,Thagoona,4306,-27.62664,152.63034
Thomas Street station,Tallon Street,Sadliers Crossing,4305,-27.614837,152.74568
Thorneside station,Railway Parade,Thorneside,4158,-27.486204,153.19311
Toombul station,Collins Street,Nundah,4012,-27.407459,153.05922
Toowong station,Sherwood Road,Toowong,4066,-27.485482,152.99303
Traveston,Howe Road,Traveston,4570,-26.320934,152.78389
Trinder Park station,Railway Parade,Trinder Park,4114,-27.63188,153.09789
Varsity Lakes station,Corner Scottsdale Drive and Cormandel Lane,Varsity Lakes,4227,-28.097308,153.39954
Virginia  station,4 Wellington Street,Virginia,4014,-27.382749,153.06312
Wacol  station,Wilruna Street,Wacol ,4076,-27.589176,152.92467
Walloon  station,Station Lane,Walloon,4306,-27.607341,152.66761
Wellington Point station,Station Street,Wellington Point,4160,-27.494341,153.24167
Wilston  station,Newmarket Road,Wilston,4051,-27.436244,153.0195
Windsor  station,Eildon Road,Windsor,4030,-27.435218,153.0293
Woodridge  station,Station Road,Woodridge,4114,-27.637919,153.10412
Wooloowin  station,Hudson Street,Wooloowin ,4030,-27.419844,153.0435
Woombye  station,Blackall Street,Woombye,4559,-26.660704,152.96278
Wulkaraka  station,Grace Street,Wulkaraka,4305,-27.613518,152.73231
Wynnum  station,Thorn Street,Wynnum,4178,-27.4395,153.16602
Wynnum Central station,Ronald Street,Wynnum Central,4178,-27.445752,153.17077
Wynnum North station,Cameron Parade,Wynnum North,4178,-27.437112,153.15821
Yandina,Railway Street,Yandina,4561,-26.560647,152.95809
Yeerongpilly  station,67 Wilkie Street,Yeerongpilly,4105,-27.525137,153.01403
Yeronga  station,Fairfield Road,Yeronga,4104,-27.517587,153.01703
Zillmere  station,Zillmere Road,Zillmere,4034,-27.359156,153.03702
Aspley Bus Interchange,"Pick 'n Pay Hypermarket, Albany Creek Rd",Aspley,4034,-27.363956,153.01285
Boggo Road Busway,Quarry Street,Woolloongabba,4102,-27.494044,153.0306
Bribie Island Park n Ride,"Cnr Village and Victory Road, Bongaree",Bribie Island,4507,-27.065605,153.1595
Brookside Bus Interchange,Brookside Shopping Centre,Mitchelton,4053,-27.409799,152.97823
Browns Plains Interchange,Need to be added - find address and naming convention please :),Browns Plains,4118,-27.661367,153.04189
Buranda busway station,O'Keefe Street,Buranda,4102,-27.497029,153.03918
Cannon Hill Bus Interchange,"Cannon Hill Shopping Centre, Creek Road",Cannon Hill,4170,-27.470643,153.09662
Capalaba Bus Interchange,Redland Bay Road,Capalaba,4157,-27.52345,153.19193
Carindale Bus Interchange,Westfield Carindale Shopping Centre,Carindale,4152,-27.50339,153.10293
Chermside Interchange busway station,corner Gympie and Hamilton Roads,Chermside,4032,-27.385601,153.03165
Cultural Centre busway station,corner of Grey and Melbourne Streets,South Brisbane,4101,-27.473715,153.01856
Eight Mile Plains Busway,Eight Mile Plains Busway Station,Eight Mile Plains,4113,-27.578465,153.10177
Garden City bus interchange,South East Freeway near Garden City Shopping Centre,Upper Mt Gravatt,4122,-27.563517,153.08068
Greenslopes Busway,Barnsdale Place,Greenslopes,4120,-27.511592,153.04086
Griffith University busway station,access to Plaza from roundabout at bottom of Sports Road ,Mt Gravatt,4122,-27.546621,153.06444
Holland Park Busway,Holland Park Busway Station,Holland Park,4121,-27.528343,153.05727
Indooroopilly Shopping Centre,"Indooroopilly Bus Interchange, Station Rd",Indooroopilly,4068,-27.50094,152.97195
Kawana Shoppingword Interchange,Buddina QLD,Kawana,4575,-26.701729,153.13073
Kedron Brook,Perry St,Kedron,4032,-27.395083,153.01478
King George Square busway station,corner Ann and Roma Streets,Brisbane,4000,-27.468462,153.02396
Langlands Park,Cnr Old Cleveland Road and Mains Road,Coorparoo,4151,-27.498516,153.0497
Loganholme Bus Interchange,Cnr Service Rd and Mandew St,Loganholme,4129,-27.660469,153.1736
Lutwyche,Lamington Street,Lutwyche,4030,-27.420333,153.03448
Maroochydore Bus Interchange,"Sunshine Plaza, Horton Parade",Maroochydore,4558,-26.654324,153.09063
Mater Hill busway station,"Stanley Street, opposite Mater Public Hospital",South Brisbane,4101,-27.484485,153.02829
Noosa Junction Bus Interchange,"Noosa Junction, Sunshine Beach Road and Lanyana Way",Noosa Heads,4567,-26.399021,153.09281
Normanby Busway,Normanby Busway Station,Red Hill,4059,-27.45907,153.01486
North Lakes Bus Interchange,Corner of Endavour Boulevard and The Corso,North Lakes,4509,-27.237879,153.01756
PA Hospital Busway,"PA Hospital, Ipswich Road",Woolloongabba,4102,-27.498955,153.03344
Queen Street Mall,"Myer Centre Busway, Queen Street",Brisbane,4000,-27.469587,153.02526
QUT Kelvin Grove busway station,between University and Victoria Park Golf Course,Kelvin Grove,4059,-27.452195,153.01823
RBWH busway station,Bowen Bridge Road,Herston,4006,-27.447118,153.02884
Redcliffe Interchange,"LOT 631 Redcliffe Parade, Redcliffe QLD 4020",Redcliffe,4020,-27.225403,153.11457
Roma Street Busway,Roma Street Busway Station,Brisbane,4000,-27.465855,153.01834
Royal Childrens Hospital Busway,Royal Childrens Hospital,Herston,4006,-27.449785,153.02532
South Bank busway station,corner of Tribune Street and Colchester Streets,South Brisbane,4101,-27.481243,153.02228
Springwood Busway Station,Springwood Busway Station,Springwood,4127,-27.615073,153.12495
Stones Corner,Gladys Street,Stones Corner,4120,-27.497812,153.04399
The Gap Interchange,Enoggera Reservoir QLD 4520,The Gap,4061,-27.445578,152.93057
Toombul Bus Interchange,Toombul Shopping Centre,Toombul,4012,-27.408265,153.06012
UQ Chancellor,University of Qld,St Lucia,4067,-27.495431,153.01203
UQ Lakes,University of Qld,St Lucia,4067,-27.497704,153.01795
USC Station,90 Sippy Downs Dr,Sippy Downs,4556,-26.718462,153.06177
Woolloongabba busway station,corner of Main Street and Stanley Streets,Woolloongabba,4102,-27.486045,153.03483
Nerang Street Station,Corner Nerang Street and Cougal Street,Southport ,4215,-27.971116,153.40755
Broadbeach North,Corner Gold Coast Highway and Queensland Ave,Broadbeach,4218,-28.028599,153.42979
Broadbeach South,Corner Gold Coast Highway and Hooker Boulevard,Broadbeach,4218,-28.035763,153.43111
Broadwater Parklands Station,Corner Queen St and Ada Bell Way,Southport ,4215,-27.97349,153.41896
Cavill Avenue Station,Corner Surfers Paradise Boulevard and Cavill Ave,Surfers Paradise,4217,-28.001657,153.42831
Cypress Ave Station,Corner Surfers Paradise Boulevard and Palm Ave,Surfers Paradise,4217,-27.996725,153.42908
Florida Gardens,Corner Gold Coast Highway and Monaco Street,Surfers Paradise,4217,-28.017389,153.42928
Gold Coast University Hospital Station,Corner Parklands Drive and University Drive,Southport ,4215,-27.96073,153.38054
Griffith University Station,Corner Parklands Drive and Engineering Drive,Southport ,4215,-27.963455,153.38487
Main Beach Station,Corner Gold Coast Highway and Tedder Ave,Main Beach,4217,-27.98252,153.42438
Northcliffe Station,Corner Surfers Paradise Boulevard and Vista Street,Surfers Paradise,4217,-28.009658,153.42948
Queen Street Station,Corner Wardoo St and Queen Street ,Southport ,4215,-27.970178,153.39389
Southport South Station,Corner Scarborough Street and Queen Street,Southport ,4215,-27.973279,153.41581
Southport Station,Corner Nerang Street and Scarborough Street,Southport ,4215,-27.967396,153.41426
Surfers Paradise North Station,Corner Surfers Paradise Boulevard and Ocean Ave,Surfers Paradise,4217,-27.993319,153.42936
Surfers Paradise Station,Corner Surfers Paradise Boulevard and Clifford Street,Surfers Paradise,4217,-28.005773,153.42895
