STATION,ADDRESS,LOCALITY,ALTADDRESS,LONG,LAT
ABBEYWOOD HIVESVILLE RURAL,GAYNDAH-HIVESVILLE ROAD,ABBEYWOOD ,,151.661371939,-26.120001814
AGNES WATER RURAL,CAPTAIN COOK DRIVE,AGNES WATER ,,151.88320658,-24.182892518
ALDERSHOT RURAL,2 MURRAY STREET,ALDERSHOT ,,152.661586,-25.4657109999999
ALTON DOWNS RURAL,50 NICHOLASON STREET,ALTON DOWNS ,,150.354964475,-23.306887085
ALVA BEACH RURAL,BRABY STREET,ALVA BEACH ,,147.478793022,-19.459759372
AMBY TOWN RURAL,GEORGE STREET,AMBY ,,148.187706719,-26.548008489
ANAKIE RURAL,CORNER OF CAMERON STREET AND HEGARTY STREET,WILLOWS GEMFIELDS ,,147.749447308,-23.5498622499999
ARATULA RURAL,6708 CUNNINGHAM HIGHWAY,ARATULA ,,152.550487714,-27.9791762049999
AVONDALE RURAL,O'CONNELL STREET,AVONDALE ,,152.160480249,-24.742769772
BAJOOL RURAL,HIGH STREET,BAJOOL ,,150.64464,-23.6534399999999
BALL BAY HALIDAY BAY RURAL,5 STURGEON STREET,BALL BAY ,,148.99357187,-20.903618857
BALL BAY HALIDAY BAY RURAL,1 HEADLAND DRIVE,HALIDAY BAY ,,148.987442863,-20.897911773
BALLANDEAN RURAL,27 CURR ROAD,BALLANDEAN ,,151.840085758,-28.80215112
BANANA NO 1 RURAL,CORNER OF NORTH STREET AND BRAMPSTON STREET,BANANA ,,150.129809846,-24.468387314
BAUPLE RURAL,CORNER OF MILL STREET AND SOTTENVILL ROAD,BAUPLE ,,152.625051004,-25.816185036
BEDOURIE TOWN RURAL,EYRE STREET,BEDOURIE ,,139.469184911,-24.3607424059999
BEECHMONT RURAL,6 BINNA BURRA ROAD,BEECHMONT ,,153.192544994,-28.125516943
BEECHMONT RURAL,1861 BEECHMONT ROAD,BEECHMONT ,,153.191449436,-28.12647141
BEERWAH AND DISTRICT RURAL,179 ROYS ROAD,BEERWAH ,,152.976792494,-26.856567506
BELL CENTRE RURAL,CORNER OF CHALLACOMBE STREET AND CASSIDY STREET,BELL ,,151.4517449,-26.933893466
BELLI PARK RURAL,1170 EUMUNDI-KENILWORTH ROAD,BELLI PARK ,,152.844092062,-26.5113577609999
BELLTHORPE RURAL,300 BELLTHORPE WEST ROAD,BELLTHORPE ,,152.718361,-26.8475299999999
BELMONT RURAL,CORNER OF GREENLAKE ROAD AND MILLERS ROAD,PARKHURST ,,150.528185717,-23.230994768
BENARABY RURAL,15 O'CONNOR ROAD,BENARABY ,,151.32285688,-24.0041878
BENNETT RURAL,"LOT 1,  MARY ROAD",TARA ,,150.470297214,-27.052210143
BENNETT RURAL,59 BILLABONG LANE,TARA ,,150.548701028,-27.070538255
BIARRA RURAL,228 ESK - CROWS NEST ROAD,BIARRA ,,152.391043574,-27.208740415
BIDWILL RURAL,LANGERS ROAD,TINANA ,,152.714820396,-25.579567794
BIDWILL RURAL,976 BIDWILL ROAD,TINANA ,,152.704541198,-25.636287196
BINGERA WEIR RURAL,36 STATESMAN DRIVE,SOUTH BINGERA ,,152.22361461,-24.9679622639999
BIRDSVILLE RURAL,EYRE DEVELOPMENTAL ROAD,BIRDSVILLE ,,139.351880852,-25.89804077
BIRNAM RURAL,1 BEAUDESERT/BEENLEIGH ROAD,BIRNAM ,,153.077684095,-27.934622103
BIRTHAMBA RURAL,ROUNDS & BIRTHAMBA ROADS,SOUTH KOLAN ,,152.153635205,-24.886905231
BLACK MOUNTAIN RURAL,MARY RIVER ROAD,COOROY ,,152.888963714,-26.4156473269999
BLACK MOUNTAIN RURAL,COOROY BELLI CREEK ROAD,BLACK MOUNTAIN ,,152.886543075,-26.442751383
BLACK RIVER AND DISTRICT RURAL,BOWDEN ROAD,BLACK RIVER ,,146.626838266,-19.2308901869999
BLENHEIM DISTRICT RURAL,MOUNT BERRYMAN ROAD,BLENHEIM ,,152.329928933,-27.650586985
BLI BLI AND DISTRICT RURAL,CNR LEFOES ROAD AND SPORTS ROAD,BLI BLI,,153.04038542,-26.609680527
BLOOMFIELD RIVER RURAL,BLOOMFIELD ROAD,BLOOMFIELD ,,145.342943523,-15.900625798
BLUEWATER RURAL,FORESTRY ROAD,BLUEWATER ,,146.549626493,-19.175565435
BLUFF RURAL,CHURCH STREET,BLUFF ,,149.069873337,-23.581468012
BONDOOLA RURAL,19 GRANDBOWER ROAD,BONDOOLA ,,150.66468,-23.18567
BONOGIN VALLEY RURAL,911 BONOGIN ROAD,BONOGIN ,,153.33390302,-28.152569087
BOOIE RISE RURAL,66 MALAR CRESCENT,NANANGO ,,151.971935391,-26.5798200679999
BOOUBYJAN BOONARA RURAL,BURNETT HIGHWAY,TANSEY ,,152.051416106,-26.044490824
BOOYAL RURAL,MAIN STREET,BOOYAL ,,152.040389142,-25.2139550859999
BOOYAN RURAL,19 WAGTAIL CLOSE,MOORE PARK BEACH ,,152.213550459,-24.701833887
BOREEN POINT RURAL,TEEWAH STREET,BOREEN POINT ,,152.994965,-26.286511
BOREEN POINT RURAL,"DAVIS ROAD, COOTHARABA",COOTHARABA ,,152.935182769,-26.298900411
BOROREN RURAL,KENT STREET,BOROREN ,,151.49185,-24.24513
BOULDERCOMBE RURAL,52476 BURNETT HIGHWAY,BOULDERCOMBE ,,150.463857018,-23.570989847
BOWENVILLE RURAL,"LOT 1,  NORWIN ROAD",BOWENVILLE ,,151.491859321,-27.3052479209999
BRACKER CREEK RURAL,28 TOBACCO ROAD,INGLEWOOD ,,151.212783015,-28.478627832
BRAEMAR RURAL,2933 DALBY-KOGAN ROAD,DALBY ,,150.82298,-27.06913
BRANYAN RURAL,CORNER OF BARTHOLDT DRIVE AND NAROOMA DRIVE,BUNDABERG ,,152.263778154,-24.912869438
BROOKFIELD RURAL,CORNER OF BOSCOMBE ROAD AND BROOKFIELD ROAD,BROOKFIELD ,,152.91359177,-27.4940791779999
BROOKLANDS RURAL,LORD STREET,BROOKLANDS ,,151.818337181,-26.742905154
BROOKLANDS RURAL,40 TANDURINGIE DRIVE,TARONG ,,151.863029592,-26.7677155649999
BROOKLANDS RURAL,"LOT 173,  ACACIA DRIVE",ELLESMERE ,,151.739122099,-26.733369446
BROOKSTEAD RURAL,GORE HIGHWAY,BROOKSTEAD ,,151.442394038,-27.7615324129999
BROOLOO MARY RIVER RURAL,"LOT 11,  SUTTON STREET",BROOLOO ,,152.701327894,-26.488256081
BROOWEENA DISTRICT  RURAL,SMITH CRESCENT,BROOWEENA ,,152.263422188,-25.599566453
BULLHEAD RURAL,PENINSULA DEVELOPMENT ROAD,LAKELAND ,,144.856192464,-15.861728828
BUNGADOO RURAL,1 RIVER ROAD,BUNGADOO ,,152.080139134,-24.9912987989999
BUNGUNDARRA RURAL,BUNGUNDARRA ROAD,BUNGUNDARRA ,,150.65653,-23.06328
BUNGUNYA RURAL,CORNER OF MAIN STREET AND LANE STREET,BUNGUNYA ,,149.657065344,-28.424732401
BUNYA MOUNTAIN RURAL,BUNYA MOUNTAINS ROAD,BUNYA MOUNTAINS ,,151.596765131,-26.8856164749999
BURKETOWN RURAL,"LOT 120,  ALBERT STREET",BURKETOWN ,,139.548335,-17.735536
BURNETT HEADS RURAL,BREWER STREET,BURNETT HEADS ,,152.409972846,-24.7638999869999
BURRUM HEADS RURAL,BUSHNELL ROAD,BURRUM HEADS ,,152.621045895,-25.1921162689999
BUXTON RURAL,"POWER STREET, POWER STREET, BUXTON QLD 4660",BUXTON ,,152.534013541,-25.1956460649999
BYFIELDS RURAL,BYFIELD ROAD,BYFIELD ,,150.647847124,-22.8440921989999
CABARLAH RURAL,"LOT 679, ",CABARLAH ,,151.990746576,-27.432317187
CALEN AND CAMERONS POCKET RURAL,MCINTRYE STREET,CALEN ,,148.758119,-20.900753
CALLIOPE RURAL,VALLIS STREET,CALLIOPE ,,151.203067616,-24.0161590619999
CALLIUNGAL RURAL,NEWMAN OVAL THOMPSON AVENUE,MOUNT MORGAN ,,150.383673732,-23.6397486139999
CAMBOOYA RURAL,GEORGE STREET,CAMBOOYA ,,151.867078408,-27.705727031
CAMOOWEAL TOWN RURAL,BARKEY HIGHWAY,MOUNT ISA ,,138.121355708,-19.9218188739999
CAPTAIN CREEK RURAL,22 MURPHY ROAD,CAPTAIN CREEK ,,151.77895,-24.2906199999999
CARMILA AND DISTRICT RURAL,MUSIC STREET,CARMILA ,,149.415550924,-21.908197636
CAWARRAL RURAL,MILL STREET,CAWARRAL ,,150.675423897,-23.256276692
CAWARRAL RURAL,674 CAWARRAL ROAD,CAWARRAL ,,150.675423897,-23.256276692
CEDAR CREEK WOLFFDENE RURAL,17 VEIVERS ROAD,WOLFFDENE ,,153.1754833,-27.7965196169999
CEDAR POCKET AND GREENS CREEK RURAL,CEDAR POCKET ROAD,CEDAR POCKET ,,152.747234233,-26.197377092
CENTRAL LOCKYER RURAL,"LOT 50,  LAIDLEY/PLAINLANDS ROAD",LAIDLEY ,,152.399321453,-27.60629209
CENTRAL LOCKYER RURAL,BRIGHTVIEW ROAD,GLENORE GROVE ,,152.4090239,-27.5306876249999
CHAMBERS FLAT RURAL,KENNY ROAD,CHAMBERS FLAT ,,153.092374245,-27.757543601
CHATSWORTH RURAL,ALLEN ROAD,CHATSWORTH ,,152.615318409,-26.1410216309999
CHILLAGOE RURAL,KING STREET,CHILLAGOE ,,144.524238347,-17.157527576
CLAGIRABA RURAL,177 CLAGIRABA ROAD,CLAGIRABA ,,153.256906008,-27.995561633
CLAIRVIEW RURAL,COLONIAL DRIVE,CLAIRVIEW ,,149.536028,-22.1204309999999
CLEAR MOUNTAIN RURAL,445 CLEAR MOUNTAIN ROAD,CLEAR MOUNTAIN ,,152.893278768,-27.3037520509999
CLOSEBURN RURAL,8 ANDREW ROAD,CLOSEBURN ,,152.865875417,-27.325296008
COALSTOUN LAKES RURAL,CORNER OF ISIS HIGHWAY AND GLENVIEW ROAD,COALSTOUN LAKES ,,151.889279792,-25.615494675
COLOSSEUM RURAL,CORNER OF ROE STREET AND JINKS STREET,MIRIAM VALE ,,151.55838,-24.32677
COMET RURAL,SHAKESPEARE STREET,COMET ,,148.545685775,-23.6049880859999
CONDAMINE RURAL,WAMBO STREET,CONDAMINE ,,150.136577802,-26.925466969
CONWAY RURAL,100 ALLAN ROAD,CONWAY ,,148.744165893,-20.471612642
COOBERRIE RURAL,302 WOODBURY ROAD,YEPPOON ,,150.69418,-23.0530699999999
COOMERA VALLEY RURAL,GAWLER PLACE,UPPER COOMERA ,,153.285173313,-27.898527449
COOMINYA RURAL,RAILWAY STREET,COOMINYA ,,152.501800709,-27.3905607629999
COONARR RURAL,85 HERBERT HALLS ROAD,KINKUNA ,,152.472598415,-24.9762966599999
COORANGA NORTH RURAL,CORNER OF IRONPOT ROAD AND JANDOWAE ROAD,BELL ,,151.40539,-26.76555
COOWONGA RURAL,COOWONGA ROAD,COOWONGA ,,150.731232887,-23.304271817
COOYAR TOWN RURAL,CORNER OF FERGUS STREET AND MUNRO STREET,COOYAR ,,151.83207442,-26.981240607
COPPABELLA RURAL,MATHIESON STREET,COPPABELLA ,,148.362183042,-21.903532727
COVERTY RURAL,202 COVERTY ROAD,COVERTY ,,151.503013135,-26.290906782
CRACOW RURAL,CORNER OF THIRD AVENUE AND SIXTH AVENUE,CRACOW ,,150.300752554,-25.293700815
CRANKS AVENUE RURAL,27 LUTHJE ROAD,MONTO ,,151.125982338,-24.870273911
CROYDON RURAL,CORNER OF BROWN STREET AND SIRCOM STREET,CROYDON ,,142.242508635,-18.2024510269999
CRYSTAL WATERS VILLAGE RURAL,KILCOY LANE,CRYSTAL WATERS ,,152.718441277,-26.7816413749999
CUNGULLA RURAL,"FRANK RANDELL DRIVE, FRANK RANDELL DRIVE, CUNGULLA QLD 4816",CUNGULLA ,,147.107294991,-19.396228929
CURRA RURAL,DAVID DRIVE,CURRA ,,152.579348928,-26.0834985349999
CURRUMBIN VALLEY RURAL,6 BRAEWOOD DRIVE,CURRUMBIN VALLEY ,,153.38989992,-28.214496584
CURTIS ISLAND RURAL,TURTLE STREET,CURTIS ISLAND ,,151.310130623,-23.756742265
DAINTREE RURAL,CORNER OF DOUGLAS ROAD AND OSBORNE ROAD,DAINTREE ,,145.321766414,-16.2506051509999
DAJARRA TOWN RURAL,CARMODY STREET,DAJARRA ,,139.516249,-21.694747
DALMA RURAL,2070 STAWELL-WAROULA ROAD,DALMA ,,150.24526,-23.3478699999999
DALRYMPLE HEIGHTS RURAL,1 NORTH STREET,EUNGELLA ,,148.493896624,-21.131028651
DAYBORO AND DISTRICT RURAL,LACEY'S CREEK ROAD,DAYBORO ,,152.80619,-27.1881999999999
DELANEYS CREEK RURAL,2 DASHER COURT,DELANEYS CREEK ,,152.787941,-27.0025699999999
DINGO TOWN RURAL,CAIRNS STREET,DINGO ,,149.331018816,-23.64360878
DOONAN RURAL,"LOT 143,  EUMUNDI - NOOSA ROAD",DOONAN ,,153.02183958,-26.4468550359999
DUARINGA TOWN RURAL,CHARLOTTE STREET,DUARINGA ,,149.670387391,-23.716180084
DULULU RURAL,CORNER OF BURNETT HIGHWAY AND BRYANT STREET,DULULU ,,150.262685348,-23.84748221
DUMBLETON RURAL,SUGAR SHED ROAD,DUMBLETON ,,149.09537671,-21.11455868
DUNDOWRAN RURAL,LOWER MOUNTAIN ROAD,DUNDOWRAN ,,152.764240479,-25.29485385
DUNMORA RURAL,OLD GAYNDAH ROAD,DUNMORA ,,152.571495925,-25.517794518
DURONG RURAL,8929 WONDAI - CHINCHILLA ROAD,DURONG ,,151.243956183,-26.394976105
EAST BOORAL RURAL,"LOT 15,  OSLOVE DRIVE",BOORAL ,,152.912640178,-25.362325309
ELLIOTT HEADS RURAL,100 WELCH STREET,ELLIOTT HEADS ,,152.488774401,-24.9088696979999
ETON RURAL,18 BARRIER STREET,ETON ,,148.973660443,-21.2654275199999
EUDLO RURAL,"LOT 50, ROSEBED STREET",EUDLO ,,152.957025673,-26.725342558
EUKEY RURAL,EUKEY ROAD,EUKEY ,,151.97304321,-28.77505185
EUMUNDI RURAL,150 NAPIER ROAD,EUMUNDI ,,152.952568547,-26.476017042
EURONG RURAL,JARVIS STREET,EURONG ,,153.125006021,-25.512075672
FERNVALE RURAL,BRISBANE VALLEY HIGHWAY,FERNVALE ,,152.653424371,-27.4564928619999
FINCH HATTON RURAL,54 MACKAY EUNGELLA ROAD,FINCH HATTON ,,148.635604861,-21.139206089
FLINDERS PEAK RURAL,9 FLINDERS - DOLOMITE ROAD,PEAK CROSSING ,,152.721938071,-27.789165684
FORESHORES RURAL,INTREPID DRIVE,FORESHORES ,,151.494275717,-24.104259837
FOREST PINES RURAL,ROSELLA AVENUE,THE PINES ,,150.981046087,-27.979649778
FORSAYTH AND DISTRICT RURAL,SIXTH STREET,FORSAYTH ,,143.599959,-18.5882579999999
FREESTONE AND DISTRICT RURAL,FREESTONE ROAD,WARWICK ,,152.140689733,-28.1151597799999
GARGETT RURAL,OFF GARGETT SEPTIMUS ROAD,GARGETT ,,148.741718098,-21.157726387
GATTON SPRINGDALE RURAL,GATTON-ESK ROAD,CLARENDON ,,152.33371,-27.4989199999999
GEMFIELDS RURAL,RUBYVALE ROAD,RUBYVALE ,,147.720617,-23.464167
GEMFIELDS RURAL,10 FLAGON ALLEY,SAPPHIRE ,,147.719568869,-23.4655525429999
GEORGETOWN RURAL,GULF DEVELOPMENT ROAD,GEORGETOWN ,,143.546990634,-18.2901808299999
GILSTON ADVANCETOWN RURAL,442 NERANG MURWILLUMBAH ROAD,ADVANCETOWN ,,153.281256557,-28.0284961319999
GIN GIN RURAL,54 CRAWLERS ROAD,GIN GIN ,,151.958621546,-24.953532899
GIVELDA RURAL,CORNER OF MATTS ROAD AND PINE CREEK ROAD,GIVELDA ,,152.161207167,-25.0031587079999
GLADFIELD MARYVALE RURAL,CUNNINGHAM HIGHWAY,WARWICK ,,152.24563245,-28.0597056789999
GLASS HOUSE MOUNTAINS RURAL,RYAN STREET,GLASS HOUSE MOUNTAINS ,,152.958387,-26.897477
GLASTONBURY RURAL,BROOYAR ROAD,GLASTONBURY ,,152.519711572,-26.213989214
GLENCOE RURAL,80 MCLEAN ROAD,DURONG ,,151.369479847,-26.383714154
GLENMORGAN RURAL,GODFREY STREET,GLENMORGAN ,,149.676981541,-27.248119824
GLENRAE RURAL,83 LYONS STREET,MUNDUBBERA ,,151.297433,-25.590425
GLENWOOD RURAL,CORNER OF JAMES ROAD AND ARBOR TEN ROAD,GLENWOOD ,,152.606798536,-25.930632105
GLOUCESTER RURAL,42 OLIVE STREET,DINGO BEACH ,,148.496980231,-20.0926053339999
GOGANGO RURAL,14 WILLS STREET,GOGANGO ,,150.043364283,-23.6650155749999
GOMAREN RURAL,1314 PEACHEY-MACLAGAN ROAD,GOOMBUNGEE ,,151.920774894,-27.3184571909999
GOODWOOD RURAL,"LOT 121, GOODWOOD ROAD",GOODWOOD ,,152.410516921,-25.146392331
GOOMBOORIAN RURAL,TIN CAN BAY ROAD,GOOMBOORIAN ,,152.775952224,-26.087358755
GOOMBUNGEE RURAL,CORNER OF COOKE STREET AND HADENS STREET,GOOMBUNGEE ,,151.852797879,-27.297249434
GOOVIGEN RURAL,STONES CRESCENT,GOOVIGEN ,,150.284668911,-24.146110896
GOWRIE LITTLE PLAIN RURAL,GOWRIE STREET,KINGSTHORPE ,,151.817432253,-27.479286144
GOWRIE LITTLE PLAIN RURAL,JUNCTION DRIVE,GOWRIE JUNCTION ,,151.896990159,-27.4858204719999
GOWRIE LITTLE PLAIN RURAL,YALANGUR-LILYVALE ROAD,MERINGANDAN WEST ,,151.881430003,-27.4250687049999
GOWRIE MOUNTAIN RURAL,CORNER OF JANNUSCHS COURT AND ROWLAND COURT,GOWRIE MOUNTAIN ,,151.821720647,-27.516468656
GRACEMERE RURAL,PLATEN STREET,GRACEMERE ,,150.456963526,-23.434537855
GRANDCHESTER RURAL,IPSWICH STREET,GRANDCHESTER ,,152.464728391,-27.661834235
GRANTHAM RURAL,1 CHRISTOPHER STREET,GRANTHAM ,,152.20168625,-27.572919847
GRASSTREE RURAL,40 ZELMA STREET,GRASSTREE BEACH ,,149.306272,-21.360735
GREAT KEPPEL ISLAND RURAL,GREAT KEPPEL ISLAND RESORT,GREAT KEPPEL ISLAND ,,150.93735,-23.1830699999999
GREENBANK RURAL,143-145 ISON ROAD,GREENBANK ,,152.958144279,-27.703819316
GREYMARE RURAL,MOUNTAIN MAID ROAD,WARWICK ,,151.769085849,-28.198729193
GUANABA RURAL,33 TARATA ROAD,GUANABA ,,153.252238,-27.937559039
GUNALDA RURAL,42 BALKIN STREET,GUNALDA ,,152.56300324,-25.994612279
GUNALDA RURAL,1301 ANDERLEIGH ROAD,ANDERLEIGH ,,152.680124285,-25.999938073
GUNDIAH RURAL,OLD GYMPIE ROAD,GUNDIAH ,,152.541007932,-25.827963729
GYMPIE SOUTH RURAL,CORNER OF LAWSON ROAD AND REGAN ROAD,MCINTOSH CREEK ,,152.638344232,-26.233038403
HABANA RURAL,YAKAPARI HABANA STREET,HABANA ,,149.077055109,-21.03801578
HADEN AND DISTRICT RURAL,COLLINS ROAD,HADEN ,,151.88162745,-27.223452811
HATTONVALE SUMMERHOLM RURAL,WOOLSHED CREEK ROAD,PLAINLAND ,,152.4622,-27.5750892299999
HAY POINT RURAL,HAYPOINT ROAD,HAY POINT ,,149.287069837,-21.294859704
HAZELDEAN RURAL,ESK KILCOY ROAD,HAZELDEAN ,,152.5525115,-27.0118752879999
HERONVALE RURAL,13 PITCAIN AVENUE,HERONVALE ,,148.295458797,-20.1098182
HERVEYS RANGE RURAL,KATHERINE ROAD,HERVEY RANGE ,,146.45144,-19.3754
HOLLYWELL DALGANGAL RURAL,28 MT ROSE STREET,EIDSVOLD ,,151.117846328,-25.371053376
HORSESHOE BAY RURAL,HORSESHOE BAY ROAD,MAGNETIC ISLAND ,,146.862738647,-19.1265473359999
HOWARD TORBANLEA RURAL,STELEY STREET,HOWARD ,,152.566893492,-25.3210908029999
HOWARD TORBANLEA RURAL,"LOT 1, ",HOWARD ,,152.566893492,-25.3210908029999
ILBILBIE RURAL,PACIFIC AVENUE,ILBILBIE ,,149.448249008,-21.680777731
ILFRACOMBE RURAL,CHURCH STREET,ILFRACOMBE ,,144.508962,-23.4881159999999
INNOT HOT SPRINGS RURAL,KENNEDY HIGHWAY,INNOT HOT SPRINGS ,,145.237298,-17.6672349999999
IREDALE FLAGSTONE RURAL,LOCKYER CREEK ROAD,HELIDON ,,152.124970265,-27.558775925
IREDALE FLAGSTONE RURAL,SCHOOL ROAD,FLAGSTONE CREEK ,,152.116628054,-27.61656234
IRONPOT RURAL,IRONPOT CREEK ROAD,IRONPOT ,,151.429349969,-26.6134617189999
IRVINEBANK RURAL,CORNER OF IBIS ROAD AND JESSIE ROAD,IRVINEBANK ,,145.20545216,-17.4291583519999
JIMBOOMBA RURAL,22 JOHNANNA STREET,JIMBOOMBA ,,153.025060947,-27.8290856209999
JONDARYAN RURAL,DUKE STREET,JONDARYAN ,,151.591831832,-27.368633001
JULATTEN RURAL,2 MT KOOYONG ROAD,JULATTEN ,,145.340414692,-16.594057817
JUNDAH TOWN RURAL,28 MILES STREET,JUNDAH ,,143.059675432,-24.8336275619999
KAIMKILLENBUN RURAL,MOFFAT STREET,KAIMKILLENBUN ,,151.434305807,-27.060633219
KALAPA RURAL,BLACK MT ROAD,KALAPA ,,150.26772,-23.5105199999999
KALBAR RURAL,"GEORGE STREET, GEORGE STREET, KALBAR QLD 4309",KALBAR ,,152.623941005,-27.940800533
KANDANGA RURAL,MULLER ROAD,DAGUN ,,152.673657534,-26.321738195
KANDANGA RURAL,81 MAIN STREET,KANDANGA ,,152.680134656,-26.386633247
KARARA RURAL,CORNER OF TOOWOOMBA ROAD AND TOWN ROAD,KARARA ,,151.5658,-28.2074499999999
KARRAGARRA ISLAND RURAL,11 NOYES PARADE,KARRAGARRA ISLAND ,,153.37019,-27.6368239999999
KENILWORTH RURAL,CORNER OF ANNE STREET AND PHILLIPS STREET,KENILWORTH ,,152.726669,-26.5946499999999
KENNEDY VALLEY RURAL,ELLERBECK ROAD,CARRUCHAN ,,145.93698,-18.2314299999999
KEPPEL SANDS RURAL,MUSA DRIVE,KEPPEL SANDS ,,150.790951953,-23.3240659379999
KERRY RURAL,1488 KERRY ROAD,KERRY ,,153.02774,-28.10482
KIEL MOUNTAIN ROAD RURAL,682 DIDDILLIBAH ROAD,KIELS MOUNTAIN ,,153.025347085,-26.6471647189999
KILKIVAN RURAL,26 BLIGH STREET,KILKIVAN ,,152.241593973,-26.08566854
KILLARNEY DISTRICT RURAL,IVY STREET,KILLARNEY ,,152.297217949,-28.332838844
KIN KIN RURAL,59 MAIN STREET,KIN KIN ,,152.875161357,-26.2629125399999
KOAH RURAL,249 KOAH ROAD,KURANDA ,,145.549769001,-16.876186305
KOGAN AND DISTRICT RURAL,2 HIGH STREET,KOGAN ,,150.756993621,-27.037039915
KOUMALA RURAL,BULL STREET,KOUMALA ,,149.243213057,-21.606490902
KOWANYAMA RURAL,EDWARD RIVER ROAD,KOWANYAMA ,,141.750522179,-15.483339252
KRAGRA MONOGORILBY RURAL,MONOGORILBY ROAD,MONOGORILBY ,,151.010479036,-26.052939067
KURANDA MYOLA RURAL,203 MYOLA ROAD,KURANDA ,,145.604911639,-16.80754273
KUREELPA RURAL,CORNER OF BULLOCK COURT,KUREELPA ,,152.89939,-26.61009
KYBONG RURAL,BURRIDGE ROAD,KYBONG ,,152.735247887,-26.292868949
KYNUNA RURAL,SCHOOL ROAD,KYNUNA ,,141.920502991,-21.576920049
LAMB ISLAND RURAL,4 LUCAS DRIVE,LAMB ISLAND ,,153.37352,-27.630168
LANDSBOROUGH RURAL,49 MALENY ROAD,LANDSBOROUGH ,,152.959098702,-26.8044616359999
LITTLE MULGRAVE RURAL,210 LITTLE MULGRAVE ROAD,LITTLE MULGRAVE ,,145.705589382,-17.130609125
LOCKYER WATERS RURAL,"LOT 18, ",LOCKYER WATERS ,,152.416550662,-27.453253087
LOGAN VILLAGE RURAL,1464 WATERFORD-TAMBORINE ROAD,LOGAN VILLAGE ,,153.10058,-27.7864099999999
LOWER BEECHMONT RURAL,2 MIRANI STREET,LOWER BEECHMONT ,,153.235654,-28.0643489999999
LOWER MOUNT WALKER RURAL,1-13 MCCORMACK ROAD,LOWER MOUNT WALKER ,,152.51256,-27.71179
LOWER SILVER VALLEY RURAL,CORNER OF SILVER VALLEY ROAD AND SHADY CREEK ROAD,INNOT HOT SPRINGS ,,145.286093535,-17.633120312
LOWMEAD RURAL,CLAYTON ROAD,LOWMEAD ,,151.753524659,-24.533299213
MACLEAY ISLAND RURAL,HIGH CENTRAL ROAD,MACLEAY ISLAND ,,153.355331,-27.6089309999999
MAIDENWELL AND DISTRICT RURAL,MAIN STREET,MAIDENWELL ,,151.798563281,-26.8465239289999
MALAR BOOIE RURAL,113 HILLSDALE ROAD,KINGAROY ,,151.937303,-26.539707
MALENY AND DISTRICT RURAL,MALENY STANELY RIVER ROAD,MALENY ,,152.845781,-26.762257
MANY PEAKS RURAL,CHERRY LANE,BUILYAN ,,151.381855041,-24.52882993
MAPLETON RURAL,37 OBI OBI ROAD,MAPLETON ,,152.862841,-26.6262649999999
MARBURG DISTRICT RURAL,EDMOND STREET,MARBURG ,,152.586386174,-27.565159004
MARIAN RURAL,MIRABELLAS ROAD,MARIAN ,,148.935258568,-21.1283258029999
MARLBOROUGH RURAL,29 RAILWAY STREET,MARLBOROUGH ,,149.89185726,-22.81407065
MARMOR RURAL,ROGERS STREET,MARMOR ,,150.708367593,-23.680207207
MAROOCHY RIVER RURAL,11 BANYANDAH STREET,YANDINA ,,152.97210969,-26.559375925
MARYVALE RURAL,5 PADDYS SWAMP ROAD,YEPPOON ,,150.62875,-23.0322199999999
MCEUEN RURAL,474 CUSHNIE ROAD,WONDAI ,,151.761261384,-26.317213656
MCKINLAY TOWN RURAL,LANDSBOROUGH HIGHWAY,MCKINLAY ,,141.290441167,-21.2718884459999
MIDGE POINT RURAL,BUNDERSON AVENUE,MIDGE POINT ,,148.709514796,-20.643909815
MILLSTREAM SOUTH RURAL,WOOROORA ROAD,RAVENSHOE ,,145.439205094,-17.665941022
MIRANI TOWN RURAL,LEICHHART STREET,MIRANI ,,148.871935248,-21.165962157
MONTVILLE RURAL,WESTERN AVENUE,MONTVILLE ,,152.894537,-26.692462
MOORE LINVILLE RURAL,GEORGE STREET,LINVILLE ,,152.274159458,-26.839637615
MOORE LINVILLE RURAL,3 MAIN STREET,MOORE ,,152.291095924,-26.8936523369999
MOORE PARK RURAL,34 PALM VIEW DRIVE,MOORE PARK BEACH ,,152.267516,-24.713083
MORETON ISLAND RURAL,46-48 WILLIAM LESLIE STREET,COWAN COWAN ,,153.36704,-27.124793
MORETON ISLAND RURAL,84 MORETON STREET,MORETON ISLAND ,,153.370041283,-27.0746851279999
MORETON ISLAND RURAL,73 GOONDALL STREET,KOORINGAL ,,153.422034,-27.3489769999999
MOTHAR MOUNTAIN TANDUR RURAL,HARTWIG ROAD,MOTHAR MOUNTAIN ,,152.764682938,-26.23570919
MOTHAR MOUNTAIN TANDUR RURAL,1583 NOOSA ROAD,TANDUR ,,152.770501034,-26.2922858709999
MOUNT ALFORD RURAL,3 MULHOLLAND ROAD,MOUNT ALFORD ,,152.596547835,-28.065254618
MOUNT BINGA RURAL,"LOT 95,  LEASEA MOUNT ROAD",MOUNT BINGA ,,151.98367,-27.00913
MOUNT BLACKWOOD RURAL,3022 BRUCE HIGHWAY,KUTTABEL,,148.921220991,-21.051680927
MOUNT CAMPBELL RURAL,WALKERS ROAD,ROCKMOUNT ,,152.01507,-27.68367
MOUNT GARNET RURAL,AGATE STREET,MOUNT GARNET ,,145.120781183,-17.678578178
MOUNT HALLEN RURAL,59 WINDSOR DRIVE,ESK ,,152.386431104,-27.3432959909999
MOUNT KELLY RURAL,10 MOUNT KELLY DRIVE,MOUNT KELLY ,,147.32313,-19.66049
MOUNT KILCOY SANDY CREEK RURAL,621 SANDY CREEK ROAD,MOUNT KILCOY ,,152.61279,-26.88026
MOUNT LARCOM RURAL,47 RAGLAN STREET,MOUNT LARCOM ,,150.978637933,-23.810774602
MOUNT MAURICE RURAL,MCGRATH ROAD,KIRKWOOD ,,151.216642412,-23.9221313209999
MOUNT MEE RURAL,THOMAS ROAD,MOUNT MEE ,,152.768928,-27.060416
MOUNT MOLLOY RURAL,MAIN STREET,MOUNT MOLLOY ,,145.336417352,-16.673194957
MOUNT MORT RURAL,CORNER OF GREYS PLAINS ROAD AND ALPERS ROAD,MOUNT MORT ,,152.424739912,-27.8020865679999
MOUNT NEBO RURAL,LINDSAY ROAD,MOUNT GLORIOUS ,,152.768294,-27.3333939999999
MOUNT SURPRISE RURAL,GULF DEVELOPMENT ROAD,MOUNT SURPRISE ,,144.323943697,-18.1453493999999
MOUNT WALKER RURAL,ROSEWOOD-WARILL VIEW ROAD,MOUNT WALKER WEST ,,152.535841773,-27.7803353149999
MUDGEERABA RURAL,415 SPRINGBROOK ROAD,MUDGEERABA ,,153.328372,-28.0964339999999
MULGOWIE RURAL,BECKMAN ROAD,MULGOWIE ,,152.362357819,-27.729877081
MUMBEANNA RURAL,CORNER OF HERRON ROAD AND EEL CREEK ROAD,PIE CREEK ,,152.619242616,-26.2411696779999
MUNGAR YERRA RURAL,20 KAURIE STREET,MUNGAR ,,152.591362335,-25.6016308869999
MURPHYS CREEK RURAL,30 MURPHYS CREEK ROAD,MURPHYS CREEK ,,152.052712434,-27.458703381
MUTDAPILLY RURAL,GIMPLES ROAD,MUTDAPILLY ,,152.650082153,-27.7528239169999
MUTTABURRA RURAL,CORNISH STREET,MUTTABURRA ,,144.549065541,-22.5943859569999
MYALL VALLEY RURAL,CORNER OF ACLAND STREET AND GEORGE STREET,ACLAND ,,151.68801,-27.30378
NANKIN RURAL,SLEIPNER ROAD,NANKIN ,,150.66184,-23.34687
NARANGBA RURAL,6 ROBERTS ROAD,NARANGBA ,,152.901871483,-27.1848470749999
NEBO TOWN RURAL,REYNOLDS STREET,NEBO ,,148.692550659,-21.688346081
NEERDIE RURAL,ANDERLEIGH STREET,NEERDIE ,,152.756848,-26.004353
NIKENBAH RURAL,ALLBORG ROAD,NIKENBAH ,,152.804408736,-25.3172368309999
NOME DISTRICT RURAL,2 ALLIGATOR CREEK ROAD,ALLIGATOR CREEK ,,146.953050956,-19.388233645
NOOSA NORTH SHORE RURAL,HOMEPORT ROAD,NORTH SHORE ,,153.045019,-26.3877719999999
NORMANTON RURAL,THOMPSON STREET,NORMANTON ,,141.079236538,-17.6731454929999
NORTH DALLARNIL RURAL,ISIS HIGHWAY,DALLARNIL ,,152.04579578,-25.382795608
NORTH GRANITE BELT RURAL,AMIENS THULIMBAH ROAD,STANTHORPE ,,151.947695076,-28.55102206
NORTH MILLSTREAM RURAL,MILLSTREAM PARADE,MILLSTREAM ,,145.41955685,-17.652908802
NUMINBAH VALLEY RURAL,2148 NERANG-MURWILLUMBAH ROAD,NUMINBAH VALLEY ,,153.22376912,-28.138586054
OAK VALLEY RURAL,56 CHISHOLM TRAIL,OAK VALLEY ,,146.8229,-19.41563
OCEAN VIEW RURAL,JAMES STREET,OCEAN VIEW ,,152.815716,-27.137796
OGMORE RURAL,DEMPSEY STREET,OGMORE ,,149.663105878,-22.6273010199999
ORCHID BEACH RURAL,NGKALA ROAD,ORCHID BEACH ,,153.314961389,-24.961137525
ORMEAU RURAL,31 UPPER ORMEAU ROAD,ORMEAU ,,153.259473688,-27.8028219199999
PALMWOODS RURAL,MARGARET ST,PALMWOODS ,,152.95702942,-26.687554071
PALUMA RURAL,CORNER OF MOUNT SPEC ROAD AND SMITH CRESCENT,PALUMA ,,146.206784114,-19.007547357
PAMPAS RURAL,"LOT 2,  GORE HIGHWAY",PAMPAS ,,151.411032275,-27.791263519
PENTLAND TOWN RURAL,CORNER OF GILMORE STREET AND MILLS STREET,PENTLAND ,,145.398617,-20.5237
PERANGA RURAL,32 DENHAM STREET,PERANGA ,,151.694736932,-27.146712521
PERRY RIVER RURAL,GOODNIGHT ROAD,MORGANVILLE ,,151.9688,-25.21079
PERRY SHIRE RURAL,CORNER OF FLORA STREET AND ELLIOT STREET,MOUNT PERRY ,,151.641662025,-25.1770193849999
EMU CREEK RURAL,PIERCES CREEK ROAD,CROWS NEST ,,151.997098932,-27.0940310679999
PINE MOUNTAIN DISTRICT RURAL,2 RUSSELLS ROAD,PINE MOUNTAIN ,,152.713712342,-27.543529672
PLANE CREEK RURAL,TARA CREEK ROAD,SARINA ,,149.143872706,-21.456051768
PLANET DOWNS RURAL,"LOT 5, ",GREGORY ,,139.25638,-18.64805
PRATTEN BONY MOUNTAIN RURAL,101 WHITE STREET,PRATTEN ,,151.784215689,-28.0864823859999
PRENZLAU RURAL,278 SCHULZ ROAD,PRENZLAU ,,152.526245363,-27.517308618
PURONO RURAL,PURONO PARKWAY,YABULU ,,146.583049604,-19.1976371109999
RANGEWOOD RURAL,MT MARGARET DRIVE,RANGEWOOD ,,146.636142696,-19.3128847639999
RAVENSBOURNE AND PERSEVERANCE RURAL,HAMPTON ESK ROAD,RAVENSBOURNE ,,152.123661791,-27.373489583
REDBANK CREEK RURAL,111 O'GRADY ROAD,ESK ,,152.35601,-27.2676499999999
REID RIVER RURAL,PLANT HILL ROAD,REID RIVER ,,146.854472075,-19.7143777439999
RIDGEWOOD RURAL,CORNER OF POULSEN ROAD AND JUBILEE ROAD,CARTERS RIDGE ,,152.764350924,-26.4514760979999
RIPLEY VALLEY RURAL,238 RIPLEY ROAD,RIPLEY ,,152.803825791,-27.690621958
RIVER HEADS KINGFISHER RURAL,1 MCIVOR STREET,RIVER HEADS ,,152.914505608,-25.415593224
ROADVALE RURAL,LOT 4 GRAY STREET,ROADVALE ,,152.683645607,-27.9172268039999
ROCKSBERG MOORINA RURAL,1026 CABOOLTURE RIVER ROAD,ROCKSBERG ,,152.864624353,-27.124687996
ROCKY POINT RURAL,269 SKOPPS ROAD,NORWELL ,,153.337768262,-27.7758550739999
ROLLESTON RURAL,CNR BROWN STREET AND DAWSON HIGHWAY,ROLLESTON ,,148.62661701,-24.463764085
ROLLINGSTONE RURAL,71 HERALD STREET,ROLLINGSTONE ,,146.408763784,-19.044985353
ROSEDALE RURAL,MOOLYUNG STREET,ROSEDALE ,,151.915263045,-24.6306917589999
ROSEVALE RURAL,ELAVESOR DRIVE,ROSEVALE ,,152.49049,-27.86786
RUPERTSWOOD RURAL,PROGRESS ROAD,RUPERTSWOOD ,,146.601583,-19.3289
RUSSELL ISLAND RURAL,JACKSON ROAD,RUSSELL ISLAND ,,153.375622386,-27.659336514
SAINT LAWRENCE RURAL,3 WILANGI STREET,ST LAWRENCE ,,149.536667053,-22.346881835
SAMFORD RURAL,STATION ROAD,SAMFORD ,,152.885156,-27.3684509999999
SAMSONVALE RURAL,CORNER OF KOBBLE CREEK ROAD AND MT SAMSON ROAD,KOBBLE CREEK ,,152.837101,-27.24925
SANDY CREEK RURAL,PINE CRESCENT,ESK ,,152.421131783,-27.299789371
SANDY RIDGES RURAL,1849 BURNETT HIGHWAY,SANDY RIDGES ,,152.025495255,-26.513895646
SANDY STRAITS RURAL,SNAPPER DRIVE,POONA ,,152.911142963,-25.720713577
SCRUBBY CREEK RURAL,147 CAMELLIA COURT,MILLMERRAN ,,151.056738792,-27.975903616
SCRUBBY CREEK RURAL,32 CAMELIA COURT,MILLMERRAN ,,151.056738792,-27.975903616
SEAFORTH TOWN RURAL,GEORGE STREET,SEAFORTH ,,148.967564637,-20.9020845709999
SILVER SPUR RURAL,RALEIGH ROAD,SILVER SPUR ,,151.27593,-28.90029
CROSSDALE SOMERSET DAM RURAL,ALBERT STREET,SOMERSET DAM ,,152.551758252,-27.116913962
SOUTH KOLAN RURAL,CHAMBERS ROAD,SOUTH KOLAN ,,152.185396155,-24.9271518639999
SOUTH NANANGO RURAL,13760 D'AGUILAR HIGHWAY,NANANGO ,,151.979878679,-26.6916980419999
SOUTHBROOK LINTHORPE RURAL,O'SHEA AVENUE,SOUTHBROOK ,,151.705925002,-27.6775554399999
SPEEWAH RURAL,CORNER OF SPEEWAH ROAD AND WILLIAM SMITH DRIVE,KURANDA ,,145.600809251,-16.875056957
SPRINGBROOK RURAL,3 CARRICKS ROAD,SPRINGBROOK ,,153.268589,-28.1950889999999
STANMORE AND DISTRICT RURAL,COVE ROAD,STANMORE ,,152.79403,-26.9119699999999
STANTHORPE GROUP,CORNER OF MCKENZIE STREET AND NEW ENGLAND HIGHWAY,STANTHORPE ,,151.91676,-28.65723
STANWELL RURAL,STANWELL WAROULA ROAD,STANWELL ,,150.323602339,-23.4847981089999
STOCKYARD POINT RURAL,STOCKYARD HEIGHTS DRIVE,STOCKYARD ,,150.80555,-22.81244
STONEY CREEK RURAL,WILKES ROAD,STONEY CREEK ,,152.724298699,-26.90042032
STUART RIVER RURAL,BUNYA HIGHWAY,KINGAROY ,,151.815602351,-26.593447178
SUGARLOAF RURAL,CORNER OF NEILSENS ROAD AND SUGARLOAF ROAD,STANTHORPE ,,152.003970871,-28.697123018
SUNNYSIDE RURAL,HOMEBUSH ROAD,SARINA ,,149.073264932,-21.340432243
SWAN AND EMU CREEK RURAL,OAK STREET,TANNYMOREL ,,152.246926788,-28.290432247
SWAN AND EMU CREEK RURAL,YANGAN KILARNEY ROAD,YANGAN ,,152.232114798,-28.220050811
TAKURA RURAL,838 TORBANLEA ROAD,TAKURA ,,152.706042748,-25.3188778639999
TALLEBUDGERA VALLEY RURAL,8 RUSTY COURT,TALLEBUDGERA VALLEY ,,153.378163596,-28.1733244289999
TALWOOD RURAL,CHURCH STREET,TALWOOD ,,149.472334852,-28.4843926519999
TAMBORINE RURAL,2765 WATERFORD/TAMBORINE ROAD,TAMBORINE ,,153.12806897,-27.879898156
TANBY RURAL,TANBY ROAD,TANBY ,,150.74752,-23.22707
TANNUM RURAL,100 TANNUM SANDS ROAD,TANNUM SANDS ,,151.368229793,-23.960559705
TAROMEO RURAL,CORNER OF HART STREET AND BOWMAN ROAD,KINGAROY ,,152.10150499,-26.882790728
TARZALI RURAL,THIRD AVENUE,TARZALI ,,145.602956439,-17.426304655
TEEWAH RURAL,CORNER OF STARGAZER STREET AND MULLOWAY STREET,NOOSA NORTH SHORE ,,153.062306585,-26.2785831429999
THALLON TOWN RURAL,PINE STREET,THALLON ,,148.865940024,-28.636793167
THE PALMS RURAL,PALM DRIVE,THE PALMS ,,152.590089772,-26.2013369759999
THE RIDGE RURAL,26 CHELDAN AVENUE,DALBY ,,151.325827745,-27.064471246
THEEBINE RURAL,THEEBINE ROAD,THEEBINE ,,152.544556841,-25.9455957019999
THORNTON PEAK RURAL,TEE TREE ROAD,DIWAN ,,145.403547114,-16.202499587
TIARO RURAL,COPENHAGEN STREET,TIARO ,,152.583635744,-25.732358322
TINANA RURAL,398 TEDDINGTON ROAD,TINANA ,,152.670081362,-25.5877077819999
TINBEERWAH RURAL,863 SUNRISE ROAD,TINBEERWAH ,,152.982858304,-26.403849941
TINNANBAR RURAL,BOAT HARBOUR DRIVE,TINNANBAR ,,152.956239131,-25.7581941559999
TIRROAN RURAL,18 TABLELAND ROAD,GIN GIN ,,151.925422678,-25.002218045
TOLMAH RURAL,303 HUMBUG ROAD,TARA ,,150.296825969,-27.128905441
TOMEWIN RURAL,691 TOMEWIN MOUNTAIN ROAD,CURRUMBIN VALLEY ,,153.388806831,-28.227758964
TOOGOOM RURAL,28 SHELLCOTT STREET,TOOGOOM ,,152.692871869,-25.2566673659999
TOOLAKEA RURAL,TOOLAKEA BEACH ROAD,TOOLAKEA ,,146.581848168,-19.1463905219999
TOORBUL RURAL,22 FIRST AVENUE,TOORBUL ,,153.098374788,-27.033358522
TRAVESTON RURAL,TRAVESTON ROAD,TRAVESTON ,,152.782947224,-26.321500054
TURKEY BEACH RURAL,WORTHINGTON ROAD,TURKEY BEACH ,,151.650875339,-24.0792122889999
UPPER FLAGSTONE RURAL,1785 UPPER FLAGSTONE CREEK ROAD,UPPER FLAGSTONE ,,151.987803782,-27.617355286
UPPER FLAGSTONE RURAL,120 FLAGSTONE CREEK ROAD,UPPER FLAGSTONE ,,152.000832695,-27.6096866
VALDORA YANDINA CREEK RURAL,269 VALDORA ROAD,VALDORA ,,153.007255579,-26.549801185
VERRIERDALE RURAL,478 VERRIERDALE ROAD,VERRIERDALE ,,152.998217323,-26.484008388
VETERAN RURAL,560 SANDY CREEK ROAD,VETERAN ,,152.701556618,-26.135320604
VICTORIA PLAINS RURAL,VICTORIA PLAINS ROAD,VICTORIA PLAINS ,,149.000131321,-21.1849299579999
VILLENEUVE NEURUM RURAL,"LOT 1,  TERRAGON ROAD",VILLENEUVE ,,152.649422739,-26.96994538
WALLAVILLE RURAL,51 PRATTS ROAD,GIN GIN ,,152.004328336,-25.045866271
WALSH RIVER RURAL,WALSH RIVER ROAD,WATSONVILLE ,,145.341240816,-17.3494439679999
WAMURAN RURAL,12 OLD NORTH ROAD,WAMURAN ,,152.860882,-27.0414319999999
WARRA RURAL,THORN STREET,WARRA ,,150.919877398,-26.9296115569999
WARRILL VIEW RURAL,CORNER OF ROSEWOOD ROAD AND BATH ROAD,WARRILL VIEW ,,152.61443,-27.82479
WARTBURG RURAL,300 DEEPWATER ROAD,DEEPWATER ,,151.965252826,-24.42643473
WASP CREEK RURAL,66 COLEMAN ROAD,COOMERA ,,153.363737365,-27.837865274
WATTLE CAMP RURAL,548 WATTLECAMP ROAD,NANANGO ,,151.983909059,-26.457647019
WERANGA GORANBA RURAL,"LOT 32A,  FAGANS ROAD",TARA ,,150.695317,-27.279917
WEST PITTSWORTH RURAL,7 TIP ROAD,PITTSWORTH ,,151.607728531,-27.721288622
WEST WOOMBYE RURAL,JACKSONS ROAD,WEST WOOMBYE ,,152.918777,-26.669252
WESTOWE RURAL,SPRING VALLEY ROAD,YARWUN ,,151.13414,-23.86876
WESTWOOD RURAL,"LOT 90, CAPRICORN HIGHWAY",WESTWOOD ,,150.155838668,-23.62684103
WIDGEE DISTRICT RURAL,GYMPIE-WOOLOOGA ROAD,WIDGEE ,,152.436914318,-26.199954084
WILKIE CREEK RURAL,"MOONIE HIGHWAY, VIA HALIFORD",DALBY ,,150.994680322,-27.3178606829999
WILLOWS RURAL,WILLOWS ROAD,WILLOWS ,,147.537912923,-23.737976665
WINFIELD RURAL,303 ROCKY POINT ROAD,WINFIELD ,,152.010908346,-24.5207607419999
WITHCOTT RURAL,MEADOWS ROAD,WITHCOTT ,,152.020395737,-27.55913082
WIVENHOE POCKET RURAL,Lot 11 LOCKYER VIEW ROAD,WIVENHOE POCKET ,,152.615272261,-27.4100794949999
WOLFRAM ROAD RURAL,228 PARISE ROAD,DIMBULAH ,,145.069152629,-17.1273342549999
WOLVI DISTRICT RURAL,"LOT 1, ",WOLVI ,,152.849112,-26.1518425859999
WONDECLA RURAL,5 FLAGGY CREEK ROAD,WONDECLA ,,145.398053098,-17.4262596249999
WONGA RURAL,11 OLEANDER DRIVE,WONGA BEACH ,,145.411754729,-16.3587026609999
WOODBURY RURAL,628 WOODBURY ROAD,WOODBURY ,,150.68902,-23.02421
WOODGATE RURAL,150 ACACIA STREET,WOODGATE ,,152.55793972,-25.103837359
WOODHILL RURAL,LOT 2 MT LINDSAY HIGHWAY,CEDAR GROVE ,,152.991468754,-27.875537758
WOODLEA RURAL,28 EDWARDS ROAD,GATTON ,,152.28621,-27.5931699999999
WOOLOOGA RURAL,WIDE BAY HIGHWAY,LOWER WONGA ,,152.484459549,-26.090329402
WOWAN RURAL,RAILWAY AVENUE,WOWAN ,,150.197055093,-23.906476453
YANDARAN RURAL,SOUTH LITTABELLA ROAD,YANDARAN ,,152.113197347,-24.7197313369999
YANDINA NORTH ARM RURAL,11 MONAK ROAD,YANDINA ,,152.952933662,-26.5159016019999
YARAKA RURAL,QUILP ST & YARAKA/EMMOT RD,YARAKA ,,144.076430108,-24.885293534
YENGARIE RURAL,MUNGAR ROAD,YENGARIE ,,152.604826284,-25.552104879
YULEBA RURAL,PERRY STREET,YULEBA ,,149.381783,-26.616567
ALLORA DISTRICT RURAL,"MUIR STREET, ALLORA QLD 4362",,,151.984708937,-28.0347781099999
ARMIES RURAL,"ARMSTRONG BEACH ROAD, ARMSTRONG BEACH QLD 4737",,,149.282389454,-21.4487975489999
BALLOGIE RURAL,"LOT 34, ",,,151.558129394,-26.3572253949999
BROOWEENA DISTRICT  RURAL,"LOT 1, ",,,152.263422188,-25.599566453
CHILDERS RURAL,"LORD STREET, CHILDERS QLD 4660, LORD STREET",,,152.280209719,-25.234947129
CONONDALE RURAL,"MALENY KENILWORTH ROAD, CONONDALE QLD 4552",,,152.716474088,-26.729470106
GREGORY RIVER RURAL,"LOT 49, ",,,152.254770365,-25.0685059909999
HAPPY VALLEY RURAL,YIDNEY DRIVE HAPPY VALLEY 4650,,,153.199352481,-25.337679389
ILKLEY AND DISTRICT RURAL,"LOT 36, ",,,153.044331487,-26.72612
NOBBY RURAL,11 TOOTH STREET,NOBBY ,,151.902619033,-27.855473783
LAURA RURAL,GLADWELL COURT,LAURA,,144.446730996,-15.560164245
MARTON RURAL,UNIT STREET,COOKTOWN,,145.177805645,-15.451287247
POISON CREEK RURAL,MINKE ROAD,COOKTOWN,,145.160436828,-15.4530193639999
ROSSVILLE RURAL,CEDAR ROAD,ROSSVILLE,,145.25752013,-15.7460489979999
TAMBORINE MOUNTAIN RURAL,126 MAIN WESTERN RD,NORTH TAMBORINE ,,153.180429102,-27.9363952209999
GLEN APLIN RURAL,"LOT 418, WALTERS ROAD",GLEN APLIN,,151.876587162,-28.736967536
GREENBANK RURAL,149 TEVIOT ROAD,GREENBANK,,152.982917011,-27.7309428249999
HURDLE GULLY BAILEY RURAL,367 AIRPORT ROAD,MONTO,,151.095322668,-24.8925215209999
LIME HILLS ELLIOT RURAL,"LOT 138, GLENN ROAD",WOODSTOCK,,146.836924187,-19.58950722
WILDASH RURAL,CNR MAHER LANE AND OLD STANTHORPE ROAD,WILDASH,,152.057911319,-28.3269904819999
LAGOON POCKET RURAL,"LOT 1, MARY VALLEY ROAD",LAGOON POCKET,,152.663657493,-26.271299094
CLARE RURAL,28 NELSON STREET,CLARE,,147.226663525,-19.785297697
ELIMBAH DONNYBROOK RURAL,55 ALICE STREET,DONNYBROOK ,,153.069728,-26.9998639999999
MOUNT FORBES RURAL,CHAMPIONS WAY,WILLOWBANK ,,152.668447086,-27.692882047
FORDSDALE RURAL,1355 GATTON CLIFTON ROAD,MOUNT WHITESTONE,,152.15883498,-27.6660992079999
LEFT HAND BRANCH RURAL,,,,152.23392396,-27.733151049
JUNCTION VIEW RURAL,MOUNT SYLVIA ROAD,JUNCTION VIEW,,152.189668702,-27.7938037229999
CROWS NEST RURAL,LOT 18 TIMBER STREET,CROWS NEST,,152.053860089,-27.278560601
ADELAIDE PARK RURAL,724A ADELAIDE PARK ROAD,ADELAIDE PARK,,150.688403975,-23.086048413
TIRROAN RURAL,TOBINS SHORTCUT ROAD,HORSE CAMP,,151.875788132,-25.0931129909999
AGNES WATER RURAL,2863 ROUND HILL ROAD,AGNES WATER,,151.893171358,-24.219985177
MOUNT BLACKWOOD RURAL,3022 BRUCE HIGHWAY,KUTTABUL ,,148.921220991,-21.051680927
STANAGE RURAL,131 BANKSIA ROAD,STANAGE,,150.045643172,-22.136573797
MOUNT FOX RURAL,2957 MUONT FO ROAD,MOUNT FOX,,145.794034829,-18.8194792419999
NERIMBERA RURAL,,,,150.59532273,-23.401551223
GAETA RURAL,Lot 100 Gaeta Road,Gaeta,,151.589386846,-24.879772729
IMAGE FLAT COOLOOLABIN RURAL,368 KIAMBA ROAD,KIAMBA,,152.913619161,-26.566046452
BUTLERVILLE RURAL,TARGINNIE ROAD TARGINNIE 4694,,,151.094747136,-23.7543252149999
COEN RURAL,20 SHEPHARD STREET,COEN,,143.19847999,-13.945928061
